{
  "type" : "FeatureCollection",
  "features" : [{"type":"Feature","id":0,"geometry":{"type":"Polygon","coordinates":[[[130.83681248000005,-12.45376258999994],[130.83652986000004,-12.454228139999941],[130.83649730000002,-12.45427677999993],[130.83645967000007,-12.454337869999961],[130.83643412000004,-12.454383139999948],[130.83640963000005,-12.454429219999952],[130.83637579000003,-12.454499589999955],[130.83635528000002,-12.454547379999951],[130.83633586000008,-12.454595719999929],[130.83630955000001,-12.45466923999993],[130.83630163000009,-12.454694079999967],[130.8362868800001,-12.454743939999958],[130.83626743000002,-12.454819529999952],[130.83625626000003,-12.454870479999954],[130.83624658000008,-12.454921599999977],[130.83623863000003,-12.454973079999945],[130.83623217000002,-12.455024729999934],[130.83622746000003,-12.455076589999976],[130.83622279000008,-12.455154529999959],[130.83622206000007,-12.455206529999941],[130.83622242000001,-12.455258649999962],[130.8362264000001,-12.455336589999945],[130.8362285500001,-12.455362599999944],[130.83623359000012,-12.455414339999948],[130.83624042000008,-12.455466009999952],[130.83625878000009,-12.455568519999929],[130.8363002000001,-12.455732769999941],[130.83635889000004,-12.455863889999932],[130.83642799000006,-12.455969029999949],[130.83601996000004,-12.456258369999944],[130.83587071000011,-12.456364209999947],[130.83505891000004,-12.455754279999951],[130.83476695000002,-12.455442329999926],[130.8343083200001,-12.45588577999996],[130.83394858000008,-12.456254369999954],[130.83347671000001,-12.456737889999943],[130.83336440000005,-12.456826259999957],[130.83377232000009,-12.457219309999971],[130.83395595000002,-12.457396229999972],[130.83454842000003,-12.457970169999953],[130.83521513000005,-12.458649399999956],[130.83475254000007,-12.459111169999971],[130.83470826000007,-12.45915537999997],[130.83425609000005,-12.459625809999977],[130.83331826000006,-12.46059202999993],[130.83349865000002,-12.460884609999937],[130.8337356400001,-12.461219609999944],[130.83378466000011,-12.461281619999966],[130.83384065000007,-12.461335619999943],[130.83389967000005,-12.461363609999978],[130.83396464000009,-12.461374619999958],[130.83398968000006,-12.461372619999963],[130.8340626800001,-12.461357619999944],[130.83410765000008,-12.461369619999971],[130.83414966000009,-12.461395619999962],[130.83419368000011,-12.461436609999964],[130.83422967000001,-12.461480619999975],[130.83427164000011,-12.461542619999932],[130.83430869000006,-12.461606609999933],[130.83435267000004,-12.461687619999964],[130.83439366000005,-12.461770609999974],[130.8344596500001,-12.461940629999958],[130.83447068000009,-12.461990629999946],[130.83447867000007,-12.462041639999939],[130.83449966000012,-12.462140629999965],[130.83452068000008,-12.462193629999945],[130.83454966000011,-12.462244639999938],[130.83462467000004,-12.462335639999935],[130.83466869000006,-12.462378629999932],[130.83471468000005,-12.462418629999945],[130.83481867000012,-12.46247963999997],[130.83487367000009,-12.462493629999926],[130.83493065000005,-12.462501639999971],[130.83504968000011,-12.462500639999973],[130.83521068000005,-12.462488629999939],[130.83531664000009,-12.462497639999981],[130.83541665000007,-12.462531629999944],[130.83552863000011,-12.462617629999954],[130.8356366700001,-12.46272063999993],[130.83576267000001,-12.462811639999927],[130.8359016600001,-12.462883629999965],[130.83618366000007,-12.463025629999947],[130.83627367000008,-12.463084629999969],[130.83635765000008,-12.463151639999978],[130.83642967000003,-12.463238639999929],[130.83650168000008,-12.463323629999934],[130.83654764000005,-12.463354639999977],[130.83660063000002,-12.463377629999968],[130.83670867000001,-12.463422639999976],[130.83676069000012,-12.463456629999939],[130.8368056600001,-12.463521639999954],[130.83683266000003,-12.463600629999974],[130.83696866000003,-12.463827629999969],[130.83716668000011,-12.464007629999969],[130.83758566000006,-12.464352639999959],[130.83763669000007,-12.464421639999955],[130.83769067000003,-12.464487629999951],[130.83772067000007,-12.464511629999947],[130.83775564000007,-12.464531639999961],[130.83782966000001,-12.464566629999979],[130.83794267000007,-12.464621629999954],[130.83809666000002,-12.464708629999961],[130.83824886000002,-12.464798119999955],[130.83858569000006,-12.465012659999957],[130.83862565000004,-12.465039649999937],[130.83869960000004,-12.465099079999959],[130.83872263000001,-12.465128139999933],[130.8387426700001,-12.465158649999978],[130.83877768000002,-12.465226649999977],[130.83887769000012,-12.465406659999928],[130.83899164000002,-12.465587659999926],[130.83918965000009,-12.465928649999967],[130.83925466000005,-12.466080649999981],[130.83930766000003,-12.466238659999931],[130.83939369000007,-12.466563649999955],[130.8394136500001,-12.466670649999969],[130.83943165000005,-12.466777669999942],[130.83948669000006,-12.466984669999931],[130.8395166900001,-12.467055669999979],[130.83955071000003,-12.467124679999927],[130.83964671000001,-12.467243669999959],[130.83966872000008,-12.467260669999973],[130.83969167000009,-12.467275669999935],[130.83974171000011,-12.46730365999997],[130.83980767000003,-12.467329679999978],[130.83987673000001,-12.467346679999935],[130.84012872000005,-12.467386669999939],[130.84023771000011,-12.467407669999943],[130.84045368000011,-12.467414659999974],[130.84048069000005,-12.467409669999938],[130.84056169000007,-12.467387669999937],[130.84064367000008,-12.467372669999975],[130.84072667000009,-12.467364679999946],[130.84089365000011,-12.467364679999946],[130.84097268000005,-12.46737066999998],[130.84105166000006,-12.467378659999952],[130.84120869000003,-12.467387669999937],[130.84134866000011,-12.467373649999956],[130.84148868000011,-12.467343659999926],[130.84157569000001,-12.46738111999997],[130.84209169000007,-12.470293119999951],[130.84155266000005,-12.471503779999978],[130.84117992000006,-12.47308873999998],[130.8443096200001,-12.473697149999964],[130.85192938900002,-12.470520559999954],[130.8508012100001,-12.467901229999939],[130.8511063200001,-12.467791619999957],[130.85103113000002,-12.467284199999938],[130.85102722000011,-12.467130649999945],[130.85099616000002,-12.466436269999974],[130.85154866000005,-12.465141129999949],[130.85075387000006,-12.463407189999941],[130.85091411000008,-12.46338609999998],[130.85084115000006,-12.462982659999966],[130.85129605000009,-12.462926209999978],[130.85112508000009,-12.461900569999955],[130.85066927000003,-12.461959739999941],[130.8505580100001,-12.461267059999955],[130.85101562000011,-12.461203349999948],[130.85091093000005,-12.460633009999981],[130.85156961000007,-12.460648359999936],[130.85136310000007,-12.459409679999965],[130.85132353000006,-12.459208529999955],[130.8510445600001,-12.45920652999996],[130.85104752000007,-12.459019529999978],[130.84923354000011,-12.459029519999945],[130.84926223000002,-12.458538069999975],[130.84933855000008,-12.458097549999934],[130.85010808000004,-12.458230389999926],[130.85044333000008,-12.456351649999931],[130.84961872000008,-12.45621011999998],[130.84975126000006,-12.455452689999959],[130.85014005000005,-12.453222849999975],[130.85018002000004,-12.452998389999948],[130.8483047200001,-12.452688129999956],[130.84812872000009,-12.452677119999976],[130.84811270000012,-12.452697119999982],[130.84790673000009,-12.452888109999947],[130.84779971000012,-12.452973119999967],[130.84773073000008,-12.452920119999931],[130.84759170000007,-12.452794109999957],[130.84737573000007,-12.452664119999952],[130.84709121000003,-12.452624429999958],[130.84669949000011,-12.452616459999945],[130.84516050000002,-12.452719469999977],[130.84359553000002,-12.452864489999968],[130.84312793000004,-12.45270273999995],[130.84279892000006,-12.45227940999996],[130.84162154000012,-12.452278479999961],[130.84103148000008,-12.452276979999965],[130.84102914000005,-12.452573849999965],[130.84078507000004,-12.453017469999963],[130.83982271000002,-12.453955119999932],[130.83969894000006,-12.454071559999932],[130.83962057000008,-12.454013509999982],[130.83950275000007,-12.453716039999961],[130.83937927000011,-12.453432199999952],[130.83936741000002,-12.453403299999934],[130.83931627000004,-12.45324643999993],[130.83927667000012,-12.453102969999975],[130.83925929000009,-12.453015579999942],[130.83916545000011,-12.452969239999959],[130.8390916300001,-12.45293616999993],[130.83908692000011,-12.452934059999961],[130.83854528000006,-12.452691399999935],[130.83786609000003,-12.45248823999998],[130.83767556000009,-12.452434509999932],[130.83725993000007,-12.452534359999959],[130.83695074000002,-12.452610039999968],[130.83696939000004,-12.452689089999978],[130.83697699000004,-12.452733619999947],[130.83698454000012,-12.452783479999937],[130.83699104000004,-12.452833589999955],[130.83699571000011,-12.452883909999969],[130.83699859000001,-12.452934399999947],[130.83700005000003,-12.452984889999982],[130.83700038000006,-12.453010179999978],[130.83699929000011,-12.453060659999949],[130.83699717000002,-12.453111169999943],[130.8369928300001,-12.453161469999941],[130.83698742000001,-12.45321169999994],[130.83697593000011,-12.453286659999947],[130.83696115000009,-12.453360919999966],[130.83694279000008,-12.453434439999967],[130.83692085000007,-12.453507069999944],[130.83690461000003,-12.453554849999932],[130.83688665000011,-12.453602099999955],[130.83686716000011,-12.453648719999933],[130.8368571200001,-12.453671869999937],[130.83683551000001,-12.453717579999932],[130.83681248000005,-12.45376258999994]]]},"properties":{"FID":0,"Asset_ID":"AE0EFF729C4B773F571783B3DB5FCDC2","SubAsstID":"AA3D09C7B5E268F8A3536F5E3D6B9177","SubAsstNm":"WP01","Region":"APAC","Country":"Australia"}},{"type":"Feature","id":1,"geometry":{"type":"Polygon","coordinates":[[[153.01521186900004,-27.520549673999938],[153.01576392900006,-27.520581453999966],[153.01607100900003,-27.520646443999965],[153.0170311390001,-27.520784424999931],[153.01757903900011,-27.520867454999973],[153.01741401800007,-27.521858444999964],[153.01789874800011,-27.521930424999937],[153.0183030180001,-27.521991404999937],[153.01846861800004,-27.521091764999937],[153.01848901800008,-27.521001444999968],[153.01918394800009,-27.521106434999979],[153.02081100800001,-27.521347454999955],[153.02131200800011,-27.521421284999974],[153.0219710880001,-27.52151844499997],[153.02292398800012,-27.521659494999938],[153.02549114800001,-27.522041444999957],[153.02561608800011,-27.522133424999936],[153.02640411800007,-27.521248454999977],[153.02749802800008,-27.520059445999948],[153.02839814800006,-27.519099445999927],[153.02883016800001,-27.518670405999956],[153.02852776800012,-27.518660015999956],[153.02800504800007,-27.518585435999967],[153.02780703800011,-27.518558445999929],[153.02700202800008,-27.518443455999943],[153.02679922800007,-27.51841518599997],[153.02589501800003,-27.518286444999944],[153.02388302800011,-27.518003444999977],[153.02396303800003,-27.517554454999981],[153.02397402800011,-27.517507444999978],[153.02390503800007,-27.517479454999943],[153.02391602800003,-27.517393444999982],[153.0240551280001,-27.516475474999936],[153.02423006900005,-27.515519414999972],[153.02432226900009,-27.515532974999928],[153.02432901900011,-27.515490444999955],[153.02438004900011,-27.515217434999954],[153.02439501900005,-27.515133454999955],[153.0244650190001,-27.514763454999979],[153.0245990090001,-27.514042444999973],[153.0246160590001,-27.513955444999965],[153.02469901900008,-27.513506444999962],[153.02476201900004,-27.513174444999947],[153.02434621900011,-27.513115174999939],[153.02425101900008,-27.513049444999979],[153.02445928900011,-27.512886734999938],[153.0236198990001,-27.512763434999954],[153.02304600900004,-27.512685404999957],[153.02211507900006,-27.51255247499995],[153.02177989900008,-27.512502434999931],[153.02163601900008,-27.51247544499995],[153.02148110900009,-27.512456444999941],[153.02119418900008,-27.512413434999928],[153.02015593900012,-27.512261414999955],[153.01908770000011,-27.512079544999949],[153.01797113000009,-27.511889434999944],[153.01666888000011,-27.511703583999974],[153.0168802500001,-27.510606163999967],[153.01707556000008,-27.509586903999946],[153.01748195000005,-27.509647994999966],[153.01765803000012,-27.508732444999964],[153.0172990100001,-27.508678443999941],[153.01735563000011,-27.508379913999931],[153.01771501000007,-27.508434454999929],[153.01798105000012,-27.507049154999947],[153.01802504000011,-27.506815444999972],[153.01810304000003,-27.506411434999961],[153.01769416000002,-27.506348814999967],[153.01781640000002,-27.505708864999974],[153.01793503100009,-27.505085454999971],[153.01783403100012,-27.505095444999938],[153.01773504100004,-27.505114444999947],[153.01764204100004,-27.505129443999977],[153.01756302100011,-27.505127443999982],[153.01744903100007,-27.505142453999952],[153.01733504100002,-27.505159453999966],[153.01723101100004,-27.505171443999927],[153.01710805100004,-27.505182443999956],[153.01699902100006,-27.50519944399997],[153.01689003100012,-27.505209433999937],[153.01680404100011,-27.505218443999979],[153.01675002100012,-27.50521243399993],[153.01669702100003,-27.50521243399993],[153.01663902100006,-27.505210433999935],[153.01658803100008,-27.50521243399993],[153.01653905100011,-27.505230433999941],[153.0164470310001,-27.505250453999963],[153.01635702100009,-27.505266433999964],[153.01627201100007,-27.505276443999946],[153.0161710210001,-27.505284433999975],[153.01609404100009,-27.505287453999983],[153.01602104100004,-27.50528643399997],[153.01596702100005,-27.505284433999975],[153.01590902100008,-27.505264433999969],[153.01587902100005,-27.505269453999972],[153.01582704100008,-27.505283433999978],[153.01579003100005,-27.505290453999976],[153.01576203100012,-27.505283433999978],[153.01574404100006,-27.505283433999978],[153.01571605100003,-27.505300443999943],[153.01565203100006,-27.505319443999952],[153.01560202100006,-27.505319443999952],[153.01549704100012,-27.505284433999975],[153.01545401100009,-27.505285433999973],[153.01540503100011,-27.505304433999981],[153.01534802100002,-27.505322433999936],[153.0152270210001,-27.505322433999936],[153.01511303100006,-27.505327453999939],[153.01501404100009,-27.505336443999965],[153.0148260310001,-27.505356443999972],[153.01471803100003,-27.505358433999959],[153.01462802100002,-27.505369443999939],[153.01452001100006,-27.505379453999979],[153.01442303100009,-27.505386443999953],[153.01436602100011,-27.505381453999973],[153.0143280210001,-27.505368443999942],[153.01429904100007,-27.505355443999974],[153.01373603100012,-27.505406443999959],[153.01336902100002,-27.505403443999967],[153.01301103100002,-27.505429443999958],[153.01254602100005,-27.505512453999984],[153.01218704100006,-27.505504443999939],[153.01155103100007,-27.505569443999946],[153.0109520310001,-27.505603453999981],[153.01074602100005,-27.505629443999965],[153.01056903100005,-27.50562744399997],[153.01041803100009,-27.505628443999967],[153.00985604100003,-27.505625443999975],[153.00900603100001,-27.505646443999979],[153.00846404100002,-27.505605453999976],[153.00792804200012,-27.505652443999963],[153.00737003200004,-27.505674432999967],[153.00707401200009,-27.505720442999973],[153.00676004200011,-27.50576743299996],[153.00595905200009,-27.505889442999944],[153.00579002200004,-27.50591443299993],[153.00555905200008,-27.505987432999973],[153.00530504200003,-27.506079432999968],[153.00497004200008,-27.50614544299998],[153.0048720420001,-27.506176452999966],[153.00444204200005,-27.506350442999974],[153.00423004200002,-27.506397452999977],[153.00402502200006,-27.506484442999977],[153.00394104200006,-27.506567452999946],[153.0038720120001,-27.506656452999948],[153.00364904200012,-27.506970452999951],[153.00310803200011,-27.507525452999971],[153.00251903200001,-27.508115432999944],[153.00240044200007,-27.508242252999935],[153.00195901200004,-27.508786452999971],[153.00183502200002,-27.508829442999968],[153.0016750420001,-27.508997442999942],[153.00155704200006,-27.509216442999957],[153.00148302200012,-27.509337432999928],[153.00145604200009,-27.509396452999965],[153.00134402200001,-27.50962844299994],[153.00122602200008,-27.509817432999967],[153.00115802200003,-27.509942442999943],[153.00091705200009,-27.510368442999948],[153.00068403200009,-27.51083945299996],[153.0002720220001,-27.511680442999932],[153.00004503200012,-27.512109432999978],[152.99999104200003,-27.512297432999958],[152.99976102100004,-27.512953442999958],[152.99970904100007,-27.513140442999941],[152.99967105100006,-27.51329044299996],[152.99963801100012,-27.513580442999967],[152.99966404100007,-27.513949452999952],[153.00022304100003,-27.514537452999946],[153.00100352100003,-27.514897262999966],[153.00114156100005,-27.514947242999938],[153.00132154100004,-27.515002242999969],[153.00146254100002,-27.51504024299993],[153.00180155100009,-27.515110252999932],[153.00240504100009,-27.515253442999949],[153.00264802100003,-27.515285442999982],[153.00292502100001,-27.51536643299994],[153.0036530110001,-27.515535432999968],[153.00504348100003,-27.515705222999941],[153.00513148100003,-27.51572422299995],[153.00551904100007,-27.515671442999974],[153.00624105000009,-27.51564945299998],[153.00657345000002,-27.515667212999972],[153.0066814600001,-27.515689202999965],[153.00693345000002,-27.515701213999932],[153.00710843000002,-27.515723213999934],[153.00718946000006,-27.515725203999978],[153.00734043000011,-27.515726203999975],[153.00745347000009,-27.51573921399995],[153.00767542000006,-27.515758213999959],[153.00778646000003,-27.515777213999968],[153.00787143000002,-27.515788223999948],[153.00798644000008,-27.515783223999961],[153.00807043000009,-27.515769223999939],[153.00830041000006,-27.515823203999958],[153.00854602000004,-27.515955443999928],[153.00912703000006,-27.516048443999978],[153.01001204000011,-27.516391443999964],[153.01009504000001,-27.516480453999975],[153.01022404000003,-27.516521443999977],[153.01038402000006,-27.516598443999953],[153.01064736000012,-27.516743193999957],[153.0108680400001,-27.516928443999973],[153.0110153600001,-27.517104183999948],[153.01119402000006,-27.517568433999941],[153.01135904000012,-27.517899443999966],[153.01146704000007,-27.51810044399997],[153.01157636000005,-27.518337183999961],[153.01162140000008,-27.518469183999969],[153.01164140000003,-27.518514173999961],[153.01167236000003,-27.518579183999975],[153.01168337900003,-27.518625173999965],[153.01168837900002,-27.518705173999933],[153.0116993690001,-27.518788183999959],[153.01170034900008,-27.518868173999977],[153.0116993690001,-27.518934183999932],[153.01168939900003,-27.51903217399996],[153.01168939900003,-27.519091173999982],[153.01168735900012,-27.51918217399998],[153.01167935900003,-27.519258173999958],[153.01147302900006,-27.519653443999971],[153.01134403900005,-27.520229443999938],[153.01098104900007,-27.520603433999952],[153.01082004900002,-27.52096744399995],[153.01077503900001,-27.521257443999957],[153.01070404900008,-27.521520443999975],[153.01067002900004,-27.521640433999949],[153.01059202900012,-27.521868443999949],[153.01035802900003,-27.522311443999968],[153.01019001900011,-27.522485443999983],[153.01023702900011,-27.522563433999949],[153.01061702900006,-27.523144443999968],[153.01105404900011,-27.523091443999931],[153.01184503900004,-27.523207443999979],[153.01195000900009,-27.522647443999972],[153.01422702900004,-27.522985443999971],[153.01454103900005,-27.523039443999949],[153.01462001900006,-27.523051443999975],[153.01480598900002,-27.522667483999953],[153.01483993900001,-27.522440763999953],[153.01492117900011,-27.521898433999979],[153.0149260390001,-27.521860433999962],[153.01493866900012,-27.521766843999956],[153.01501191900002,-27.521231433999958],[153.01502020900011,-27.521188423999945],[153.01504203900004,-27.521103323999967],[153.01512101900005,-27.520795483999962],[153.01517317900004,-27.520637443999931],[153.01521186900004,-27.520549673999938]]]},"properties":{"FID":1,"Asset_ID":"AE0EFF729C4B773F571783B3DB5FCDC2","SubAsstID":"FF8A12F03CB92A7877102767ED91E210","SubAsstNm":"WP03","Region":"APAC","Country":"Australia"}},{"type":"Feature","id":2,"geometry":{"type":"Polygon","coordinates":[[[138.64700526700005,-34.908358480999937],[138.64584062800009,-34.908415459999958],[138.64474226800007,-34.908471859999963],[138.64361620800003,-34.908530639999981],[138.64352871800008,-34.907234549999941],[138.64336672800005,-34.907242189999977],[138.63999146800006,-34.907401839999977],[138.64003124800001,-34.908004459999972],[138.64007055800005,-34.90860596999994],[138.64014049800005,-34.909465829999931],[138.64016524800002,-34.909859399999959],[138.64033766800003,-34.912223419999975],[138.64040716800002,-34.913176949999979],[138.64045537800007,-34.913838339999984],[138.64052458800006,-34.914787859999933],[138.64181077800004,-34.914720479999971],[138.64226910800005,-34.914697709999984],[138.64293869800008,-34.91466405999995],[138.64335267800004,-34.91464370999995],[138.64407377700002,-34.914604649999944],[138.64447552700005,-34.914584669999954],[138.64520884700005,-34.91455136999997],[138.6457049170001,-34.91452050099997],[138.64630830700003,-34.914490710999928],[138.64705925700002,-34.914449680999951],[138.64744480700006,-34.914427720999981],[138.64825086700012,-34.914387040999941],[138.64874223700008,-34.914360300999931],[138.6494072270001,-34.914323860999957],[138.64944675700008,-34.914321690999941],[138.64959435600008,-34.916330040999981],[138.64967823600011,-34.917385650999961],[138.64968020600008,-34.917415170999959],[138.64971123600003,-34.917883460999974],[138.64984350600002,-34.919594620999931],[138.6499129660001,-34.920521880999956],[138.64979598600007,-34.920560490999947],[138.64785747600001,-34.920657260999974],[138.64755857600005,-34.920672190999937],[138.64592092700002,-34.920751550999967],[138.64549613700001,-34.920772000999932],[138.64381421700011,-34.920850469999948],[138.64364894700009,-34.920873779999965],[138.64296172700006,-34.92090509999997],[138.64249697700006,-34.92092624999998],[138.64101590700011,-34.921003999999982],[138.64104660700002,-34.921522059999972],[138.64105416700011,-34.921649529999968],[138.64110967700003,-34.922447889999944],[138.64121425700012,-34.923951239999951],[138.64122341700011,-34.924074429999962],[138.64124611700004,-34.924382289999983],[138.64130685700002,-34.925207869999952],[138.64132305700002,-34.925428499999953],[138.64133320700012,-34.925552669999945],[138.6414239070001,-34.926416719999963],[138.64148033700008,-34.926966239999956],[138.64154910700006,-34.928025989999981],[138.64163440700008,-34.928892239999982],[138.64164881700003,-34.929081899999971],[138.64171729700001,-34.93001148999997],[138.64177912700006,-34.930846689999953],[138.64182091700002,-34.93141191999996],[138.64186373700011,-34.93199336999993],[138.64193592700008,-34.932971909999935],[138.6448005960001,-34.93282930099997],[138.6461298160001,-34.932761870999968],[138.64621285600003,-34.932759850999958],[138.6462178160001,-34.932825860999969],[138.64744286600012,-34.932761850999952],[138.64901181500011,-34.93268281099995],[138.64988380500006,-34.932637820999958],[138.64999691500009,-34.932635810999955],[138.65010776500003,-34.932632810999962],[138.65077805500005,-34.932594030999951],[138.65076290500008,-34.932384870999954],[138.65072472500003,-34.931903280999961],[138.65071644500006,-34.931819050999934],[138.65148673500005,-34.931780790999937],[138.65163178500006,-34.933640800999967],[138.65240325500008,-34.933600860999945],[138.65307087500003,-34.933566300999985],[138.65382686500004,-34.93352749099995],[138.65526580400001,-34.933456060999958],[138.65619425400007,-34.933406020999939],[138.65641708400005,-34.933226290999983],[138.65650924400006,-34.933145460999981],[138.65674821400012,-34.93313847099995],[138.65824588400005,-34.933060860999944],[138.65977023400012,-34.932985470999938],[138.65971124400005,-34.93221147099996],[138.65967832400008,-34.931781050999973],[138.6596442340001,-34.931335480999962],[138.65960623400008,-34.930851460999975],[138.65953024400005,-34.929855680999935],[138.65947425400009,-34.929122470999971],[138.65942526400011,-34.928487700999938],[138.65933522400007,-34.92731140099994],[138.65933223400009,-34.927277390999961],[138.6592342240001,-34.92599347099997],[138.66062582400002,-34.925928480999971],[138.66199169400011,-34.925864450999939],[138.66240096400008,-34.925845490999961],[138.66335606400003,-34.925800390999939],[138.66384545400001,-34.925772560999974],[138.6647224730001,-34.925728540999955],[138.66492424300009,-34.925718470999982],[138.66608622300009,-34.92565947099996],[138.66745223300006,-34.925590470999964],[138.66804978300001,-34.92556048199998],[138.66805025300005,-34.925461471999938],[138.66804094300005,-34.925322611999945],[138.6679272130001,-34.923825661999956],[138.66805521300012,-34.923819541999933],[138.66804098300008,-34.923617691999937],[138.66784384300001,-34.923627821999958],[138.66782727300006,-34.923430060999976],[138.66789323300009,-34.923426581999934],[138.66786582300006,-34.92303758099996],[138.66782979300001,-34.923039170999971],[138.66781793300004,-34.922846660999937],[138.66785213300011,-34.922845050999967],[138.66784822300008,-34.922788810999975],[138.66763922300004,-34.919904480999946],[138.66762517300003,-34.919714220999936],[138.66761488300006,-34.919618100999969],[138.66760385300006,-34.919533000999934],[138.66754421300004,-34.918744470999968],[138.66752023300012,-34.918409470999961],[138.66748924300009,-34.918010460999938],[138.66748924300009,-34.917996480999932],[138.66743523300011,-34.917285470999957],[138.66742570400004,-34.91721077099993],[138.66741723400003,-34.91714448099998],[138.66737025400005,-34.916501480999955],[138.6673502540001,-34.916217460999974],[138.66732624400004,-34.915895470999942],[138.66743924400009,-34.915888480999968],[138.66750421400002,-34.915885460999959],[138.66745723400004,-34.915275460999965],[138.66741223400004,-34.915277480999976],[138.66734821400007,-34.914406480999958],[138.66738223400012,-34.914404460999947],[138.66734525400011,-34.913951470999962],[138.66728123400003,-34.913954470999954],[138.66724024400003,-34.913457630999972],[138.66715483400003,-34.91346189099994],[138.66647944400006,-34.913495480999984],[138.66569421400004,-34.913534460999983],[138.66511901400008,-34.913562990999935],[138.66495071400004,-34.913571260999959],[138.66392922400007,-34.913621510999974],[138.66281031400001,-34.913677380999957],[138.66114208500005,-34.91376018099993],[138.66095027500012,-34.913769560999981],[138.65999762500007,-34.913816880999946],[138.65963131500007,-34.913834590999954],[138.65829953500008,-34.913898970999981],[138.6582538350001,-34.913261940999973],[138.65811827500011,-34.911371590999977],[138.65807323500007,-34.91073260099995],[138.65800366500002,-34.909745150999981],[138.65800144500008,-34.909713160999956],[138.65789810600006,-34.908249660999957],[138.65722300600009,-34.908284180999942],[138.65721851600006,-34.908201060999943],[138.65718734600011,-34.907790140999964],[138.6572096860001,-34.907789030999936],[138.65720760600004,-34.907760450999945],[138.6568832260001,-34.907777470999974],[138.65688523600011,-34.907805480999968],[138.65664126600007,-34.907816470999933],[138.65637521600001,-34.907830470999954],[138.6562562260001,-34.907835460999934],[138.65621221600009,-34.907838460999983],[138.65589024600001,-34.907853470999953],[138.65554926600009,-34.907870470999967],[138.65552225600004,-34.907872460999954],[138.65537621600004,-34.907879480999952],[138.65533923600003,-34.907880470999942],[138.65520940600004,-34.907887340999935],[138.65520564600001,-34.907834480999952],[138.65517053600001,-34.90786000099996],[138.65292009600012,-34.907972400999938],[138.65206526700001,-34.90801247099995],[138.65157222700009,-34.908034470999951],[138.65083236700002,-34.908069380999962],[138.65080926700011,-34.908070470999974],[138.65081123700008,-34.908107470999937],[138.65070724700001,-34.908111470999984],[138.65020723700002,-34.908135480999931],[138.65019124700007,-34.908135480999931],[138.65001823700004,-34.908144470999957],[138.64987325700008,-34.908150460999934],[138.64937623700007,-34.908174480999946],[138.64929323700005,-34.908177470999931],[138.64914223700009,-34.908185470999967],[138.64896225700011,-34.908193480999955],[138.64877825700012,-34.908202470999981],[138.64857024700007,-34.908211480999967],[138.64831324700003,-34.908224460999975],[138.64831707700012,-34.908294300999955],[138.64700526700005,-34.908358480999937]]]},"properties":{"FID":2,"Asset_ID":"AE0EFF729C4B773F571783B3DB5FCDC2","SubAsstID":"E2CE74A5B60010E50638185827C1BAE0","SubAsstNm":"VS01","Region":"APAC","Country":"Australia"}},{"type":"Feature","id":3,"geometry":{"type":"Polygon","coordinates":[[[153.11969988700002,-27.607196495999972],[153.11914515700005,-27.606356424999944],[153.11788397700002,-27.604378074999943],[153.1174790770001,-27.603736414999958],[153.11675670800003,-27.602597614999979],[153.11651672800008,-27.602223614999957],[153.11599973800003,-27.601417904999948],[153.11533616800011,-27.60038467499993],[153.11487141800012,-27.599671504999947],[153.1142243380001,-27.598678534999976],[153.11329676900004,-27.597244694999972],[153.11276017900002,-27.59641522499993],[153.11115308900003,-27.593932174999964],[153.10973290900006,-27.593739423999978],[153.10828787000003,-27.593531773999928],[153.10769402000005,-27.593446453999945],[153.10757003000003,-27.593432453999981],[153.10584179000011,-27.593171563999931],[153.10557800000004,-27.59466346399995],[153.10543000000007,-27.595522453999934],[153.10527399000011,-27.596394453999949],[153.10499001900007,-27.598024443999975],[153.10496399900012,-27.598157463999939],[153.10490398900004,-27.59850245399997],[153.1048809990001,-27.59863444399997],[153.10452001900012,-27.60059245399998],[153.10447401900012,-27.600826453999957],[153.10432601900004,-27.601604453999983],[153.10430199900009,-27.601725443999953],[153.1040360290001,-27.603133463999939],[153.10387501900004,-27.603960453999946],[153.10326984800008,-27.607195493999939],[153.10309399800008,-27.608124453999949],[153.10291400800008,-27.608966453999983],[153.10257284800002,-27.610657673999981],[153.10255200800009,-27.610761453999942],[153.1024694780001,-27.611179553999932],[153.10236333800003,-27.611714333999942],[153.10222299800012,-27.612425453999947],[153.10192062800002,-27.613951963999966],[153.10149678700009,-27.616091863999941],[153.10113499700003,-27.617918463999956],[153.10107601700008,-27.61807846399995],[153.10222857700012,-27.618372213999976],[153.10232420700004,-27.618384953999964],[153.1040348570001,-27.618612803999952],[153.10539097700007,-27.61879343399994],[153.10707000700006,-27.619038413999931],[153.10787556600008,-27.619148213999949],[153.1082738560001,-27.619202494999968],[153.11103686600006,-27.619605424999975],[153.11118804600005,-27.619637464999983],[153.11134897600004,-27.619650414999967],[153.11391795600002,-27.620017434999966],[153.11459400600006,-27.620101494999972],[153.11567798500005,-27.620357464999984],[153.11582088500006,-27.620379424999953],[153.11673097500011,-27.62051549499995],[153.11739385500005,-27.620590654999944],[153.11820805500008,-27.620353485999942],[153.11850217500012,-27.620221475999983],[153.11873796500004,-27.62007844599998],[153.11893703500004,-27.619929415999934],[153.11913001500011,-27.619753455999955],[153.11937697500002,-27.619392465999965],[153.11949398500008,-27.619010425999932],[153.11968116500009,-27.617307445999984],[153.11978306500009,-27.61689047599998],[153.12012204500002,-27.616016885999954],[153.12046335600007,-27.615493645999948],[153.12119602600012,-27.614387455999974],[153.12230828500003,-27.614934835999975],[153.12283585500006,-27.615291445999958],[153.12312818500004,-27.615439495999965],[153.12392304500008,-27.616010465999977],[153.12394392500005,-27.61600946599998],[153.12443893500006,-27.616775295999958],[153.12462150500005,-27.616648435999934],[153.12416602500002,-27.615914425999961],[153.12382259500009,-27.615050605999954],[153.12374810500012,-27.614863505999949],[153.12338915500004,-27.613672435999945],[153.12304788600011,-27.612681445999954],[153.12276099600001,-27.612021475999939],[153.12245603600002,-27.611417485999937],[153.12209892600004,-27.610849495999958],[153.12169158600011,-27.610229215999937],[153.12080298600006,-27.608816465999951],[153.1199133770001,-27.607521535999979],[153.11969988700002,-27.607196495999972]]]},"properties":{"FID":3,"Asset_ID":"AE0EFF729C4B773F571783B3DB5FCDC2","SubAsstID":"9ED295F58EFE10D129E24D79B96777A1","SubAsstNm":"WP04","Region":"APAC","Country":"Australia"}},{"type":"Feature","id":4,"geometry":{"type":"Polygon","coordinates":[[[147.29500485200003,-42.99427703799995],[147.29490082200005,-42.99408903799997],[147.29480884200007,-42.993895047999956],[147.29475782200007,-42.993765047999943],[147.2947058420001,-42.993589037999982],[147.29458287200009,-42.993045047999942],[147.29447085300012,-42.992500037999946],[147.29428199300003,-42.991544227999952],[147.29410184300002,-42.990633037999942],[147.29403486300009,-42.990264027999956],[147.29400384300004,-42.990138047999949],[147.29395785300005,-42.990016037999965],[147.29384287300002,-42.98977803799994],[147.29374385300002,-42.98959403799995],[147.29362982300006,-42.989414027999942],[147.29354386300008,-42.989297037999961],[147.29341684300005,-42.989144037999949],[147.29325986300012,-42.98898702799994],[147.29308685300009,-42.988839037999981],[147.29296183300005,-42.988745037999934],[147.29278284300005,-42.988628037999945],[147.29255183400005,-42.988493047999953],[147.29231283400009,-42.988372037999966],[147.29214584400006,-42.988301037999975],[147.29209956400007,-42.988282567999931],[147.29159684400008,-42.988082027999951],[147.29104285400001,-42.98787103799998],[147.29011841400006,-42.987526547999948],[147.28962563400012,-42.987344347999965],[147.28957361400012,-42.987383357999931],[147.2892669040001,-42.987622487999943],[147.28890585400006,-42.987836037999955],[147.28888949400005,-42.987843217999966],[147.28720119500008,-42.988613667999971],[147.28716089500006,-42.988634547999936],[147.28699635500004,-42.988738507999983],[147.28683903500007,-42.988849907999963],[147.28662197500012,-42.989009307999936],[147.28652188500007,-42.989093817999958],[147.28563172500003,-42.99013791699997],[147.28421987500008,-42.991720036999936],[147.28399211500005,-42.991977576999943],[147.28397320500005,-42.991998956999964],[147.28256985500002,-42.99360603699995],[147.28104185500001,-42.995380036999961],[147.2860591430001,-42.998004047999984],[147.28603986300004,-42.998231037999972],[147.28603286300006,-42.998469037999939],[147.28605282300009,-42.998668047999956],[147.28768784300007,-42.998853047999944],[147.28828286300006,-42.999162027999944],[147.28608480300011,-43.000996157999964],[147.28376216300012,-43.002710586999967],[147.28391900300005,-43.002795136999964],[147.28539184300007,-43.002686036999933],[147.28741683300007,-43.002766037999947],[147.2887046620001,-43.005008367999949],[147.29022182100005,-43.008150737999983],[147.2902435310001,-43.008154697999942],[147.29125407100003,-43.008500717999937],[147.29175208100003,-43.008655717999943],[147.29421995000007,-43.009505697999941],[147.29585081000005,-43.010066047999942],[147.30211851800004,-43.012238998999976],[147.30466387700005,-43.013118598999938],[147.30595484700007,-43.013569038999947],[147.31055683600005,-43.01328204999993],[147.31165125600012,-43.011858839999945],[147.31049672600011,-43.011479539999982],[147.30947450700012,-43.011023898999952],[147.30982322700004,-43.010439118999955],[147.30942482700004,-43.009494038999946],[147.30925371700005,-43.009012548999976],[147.3089498170001,-43.008153038999978],[147.30935284700001,-43.008143048999955],[147.30934883700002,-43.007369038999968],[147.30935087700004,-43.007314258999941],[147.30935182700011,-43.007270048999942],[147.30941763700002,-43.00684489899993],[147.30796165800007,-43.006713988999934],[147.3080948380001,-43.005846048999956],[147.3074100980001,-43.005837518999954],[147.30741261800006,-43.003250568999931],[147.30735885800004,-43.003237048999949],[147.30663261800009,-43.00305058899994],[147.3057236190001,-43.002795578999951],[147.30560959900004,-43.002764598999931],[147.30549465900003,-43.002710588999946],[147.30476724900007,-43.002244728999983],[147.30464803900009,-43.001901548999967],[147.30336703900002,-43.002311848999966],[147.30315814900007,-43.002277158999959],[147.3032718390001,-43.001645438999958],[147.30338374900009,-43.001498338999966],[147.30317362000005,-43.000608898999985],[147.30287783000006,-43.000574048999965],[147.3024469400001,-43.000525668999956],[147.30265791000011,-42.999777748999975],[147.30183728000009,-42.999657348999961],[147.30135771000005,-42.999543228999983],[147.30107181000005,-42.999463678999973],[147.30114021000009,-42.999353548999977],[147.30097275000003,-42.999306038999975],[147.3006158500001,-42.999194818999968],[147.3004822900001,-42.99910290899993],[147.30047609000007,-42.998996718999933],[147.30050872000004,-42.998916428999962],[147.30065421000006,-42.998700518999954],[147.30086675000007,-42.998400058999948],[147.30120813000008,-42.997958808999954],[147.30141049000008,-42.997695318999945],[147.30153324000003,-42.997463568999933],[147.30156583000007,-42.997349128999986],[147.30165566000005,-42.99693420899996],[147.3009218310001,-42.996860038999955],[147.29981683100004,-42.996750038999949],[147.29942584100002,-42.99671503899998],[147.29896386100006,-42.996676038999965],[147.29875986100012,-42.99664503899993],[147.29855984100004,-42.996605037999984],[147.29811282100002,-42.996489037999936],[147.29787484100007,-42.996418037999945],[147.29758982100009,-42.996319047999975],[147.29733183100006,-42.996225047999985],[147.29708287100004,-42.996114047999981],[147.29684485200005,-42.995988047999958],[147.29661782200003,-42.99585402799994],[147.29642784200007,-42.995737037999959],[147.29624483200007,-42.995616047999931],[147.29613284200002,-42.995531037999967],[147.29582486200002,-42.995266047999962],[147.29577985200001,-42.995225027999936],[147.29562885200005,-42.995100047999983],[147.29554786200003,-42.99502304799995],[147.29547683200008,-42.994943037999974],[147.29534583200007,-42.994776037999941],[147.29516483200007,-42.994529037999939],[147.29500485200003,-42.99427703799995]]]},"properties":{"FID":4,"Asset_ID":"AE0EFF729C4B773F571783B3DB5FCDC2","SubAsstID":"A07A16C55FDEF9E2B91D21953B1505CC","SubAsstNm":"A09","Region":"APAC","Country":"Australia"}},{"type":"Feature","id":5,"geometry":{"type":"Polygon","coordinates":[[[145.10679604100005,-37.726831876999938],[145.10659696100004,-37.72661183699995],[145.10653291100004,-37.726457846999949],[145.1065818510001,-37.726340826999945],[145.10660594100011,-37.726260836999984],[145.10672081100006,-37.726208816999929],[145.10714092100011,-37.726187836999941],[145.10764889100005,-37.726322826999933],[145.10789691100001,-37.726362886999937],[145.10803298100006,-37.726400856999931],[145.10829403100001,-37.726395826999976],[145.10852011100008,-37.726426876999938],[145.10873608100007,-37.726411846999952],[145.10898702100008,-37.726352886999962],[145.10930884100003,-37.726177846999974],[145.10955076100004,-37.726010806999966],[145.10969081100006,-37.725859886999956],[145.10966202100008,-37.725687886999935],[145.10957489100008,-37.725542816999962],[145.10932001100002,-37.725312856999949],[145.10915083100008,-37.725246886999969],[145.10890205100009,-37.72523384699997],[145.10879981100004,-37.725241856999958],[145.10866192100002,-37.725283866999973],[145.10837787100002,-37.725315816999967],[145.10824180100008,-37.72528684699995],[145.1081089810001,-37.725175886999978],[145.1080780210001,-37.725058866999973],[145.1079458910001,-37.724875816999941],[145.10766076100003,-37.724519876999977],[145.10742712100011,-37.724300276999941],[145.10725108100007,-37.724134856999967],[145.10703004200002,-37.723869806999971],[145.1068118820001,-37.723542836999968],[145.10677085200007,-37.723378846999935],[145.10685184200008,-37.723290826999971],[145.10711391200005,-37.723258876999978],[145.10738788200001,-37.723208836999959],[145.10773598100002,-37.723081846999946],[145.10815577100004,-37.722905806999961],[145.10837284100012,-37.722810866999964],[145.10846609100008,-37.722748846999934],[145.10858490100009,-37.722543836999932],[145.10858884100003,-37.722362826999984],[145.10862593100012,-37.722228836999932],[145.10876641100003,-37.722087646999967],[145.10886040100002,-37.721971626999959],[145.10891789100003,-37.721917866999945],[145.10908542100003,-37.721778616999984],[145.10922942100001,-37.721674616999962],[145.10937239100008,-37.721644626999932],[145.10957442100005,-37.72172861699994],[145.10986802100001,-37.722070896999981],[145.11007012100004,-37.722335246999933],[145.11012451100009,-37.722390576999942],[145.11017115100003,-37.722445916999959],[145.11035132100005,-37.722511956999938],[145.11046027100008,-37.722539286999961],[145.11055612100006,-37.722522986999934],[145.11072763100003,-37.722507446999941],[145.11093973100003,-37.722508296999933],[145.11118366100004,-37.722445676999939],[145.11136292100002,-37.722401846999958],[145.11161225100011,-37.722355136999965],[145.11182052100003,-37.722283276999974],[145.11201539100011,-37.722141566999937],[145.11204437100002,-37.721916556999929],[145.1119854210001,-37.721769556999959],[145.11180077100005,-37.721714826999971],[145.11149694100004,-37.721628876999944],[145.11115341100003,-37.721494586999938],[145.11085239100009,-37.721311586999946],[145.11061039100002,-37.721161606999942],[145.11042939100003,-37.721076596999978],[145.11033741100005,-37.720963596999979],[145.11033340100005,-37.720815596999955],[145.11039742100002,-37.720719606999978],[145.11048283100001,-37.720540876999962],[145.11065200100006,-37.720332876999976],[145.11067325100009,-37.72029314699995],[145.11041227100009,-37.720263656999975],[145.11001267100005,-37.72021845699993],[145.10908240200001,-37.720113246999972],[145.1074990620001,-37.719927066999958],[145.10749786200006,-37.719934336999984],[145.10669705200007,-37.719842836999931],[145.10676435200003,-37.719437736999964],[145.10530413200001,-37.719269906999955],[145.10516653200011,-37.719150006999939],[145.10476824200009,-37.719220586999938],[145.10477029200001,-37.719208206999951],[145.10429841200005,-37.719156686999952],[145.10285560300008,-37.719002785999976],[145.10235931300008,-37.718949835999979],[145.10073641300005,-37.718777755999952],[145.0996464530001,-37.718660755999963],[145.09959641300009,-37.719040915999983],[145.09752533400001,-37.718817875999946],[145.09637890400006,-37.718685845999971],[145.09618494400002,-37.718662845999972],[145.09437304400012,-37.718454615999974],[145.09428362400001,-37.718444285999965],[145.09393511400003,-37.718404145999955],[145.09346277400005,-37.718351325999947],[145.09207391500001,-37.717338045999952],[145.09200353500012,-37.717273845999955],[145.09197156500011,-37.717308855999931],[145.09193856500008,-37.717352865999942],[145.09191155500002,-37.717400855999983],[145.0918835650001,-37.717474865999975],[145.09187155500001,-37.717525875999968],[145.09185757500006,-37.717638875999967],[145.09182855500012,-37.71786988599996],[145.09179738500006,-37.718166675999953],[145.09170902500011,-37.718157965999978],[145.08826947500006,-37.717783674999964],[145.08818834500005,-37.717773644999966],[145.08810037500007,-37.717762844999982],[145.0853577260001,-37.717461844999946],[145.08490553600006,-37.71741121499997],[145.08326624600011,-37.71722439499996],[145.08317426600001,-37.717214484999943],[145.08160833700003,-37.71703830499996],[145.08162662700011,-37.716932044999965],[145.08151362700005,-37.716937034999944],[145.07777321700007,-37.716527244999952],[145.07746650700005,-37.716508524999938],[145.07462059800002,-37.716206193999938],[145.07451361800008,-37.71619418399996],[145.07453157800012,-37.716121183999974],[145.07461460800005,-37.715628163999952],[145.07483985800002,-37.714319893999971],[145.07505056800005,-37.713096143999962],[145.07520853800008,-37.71217315399997],[145.07536654800003,-37.71125010399993],[145.07540366800004,-37.711037333999968],[145.07457734900004,-37.710946553999975],[145.07474951900008,-37.709946093999974],[145.07495460900009,-37.708775983999942],[145.07231142900002,-37.708483143999956],[145.06958444000009,-37.708196173999966],[145.06896949000009,-37.708349173999977],[145.0671685100001,-37.708801143999949],[145.06716351000011,-37.708795153999972],[145.06541771000002,-37.709235373999945],[145.06565025000009,-37.709837033999975],[145.06454025000005,-37.710385923999979],[145.06505311000012,-37.711087073999977],[145.06511921000003,-37.711139113999934],[145.06480783000006,-37.711330723999936],[145.06462927000007,-37.71145474399998],[145.06449605000012,-37.711558423999975],[145.0643798000001,-37.711653103999936],[145.06419547000007,-37.711837953999975],[145.06403418000002,-37.712033983999959],[145.06394059000002,-37.712175913999943],[145.06389522000006,-37.712241253999935],[145.06385091000004,-37.712314333999984],[145.06368787000008,-37.71294542399994],[145.06368582000005,-37.71295715399998],[145.06315770000003,-37.712900743999967],[145.06302262000008,-37.71368399399995],[145.06098208100002,-37.713650422999933],[145.06051992100004,-37.714212832999976],[145.06002469100008,-37.714815212999952],[145.05680470100003,-37.714519042999939],[145.05679586100007,-37.714542372999972],[145.05674589100011,-37.714713782999979],[145.05835215100001,-37.715804892999984],[145.05936528100005,-37.716357242999948],[145.05932020100011,-37.716594932999953],[145.05898579000007,-37.718356742999958],[145.05735836100007,-37.719438572999934],[145.05658694100009,-37.71994983299993],[145.05629366100004,-37.720738872999959],[145.05633491000003,-37.722372812999936],[145.05784590000007,-37.723455642999966],[145.05771318000006,-37.723778632999938],[145.05568699000003,-37.728660932999958],[145.05562031000011,-37.728815072999964],[145.05588234000004,-37.728882072999966],[145.05614700000001,-37.728940612999963],[145.05641502000003,-37.728989622999961],[145.05669804000001,-37.729031592999945],[145.05845562900004,-37.729228762999981],[145.06078096900012,-37.729489503999957],[145.06085323900004,-37.729708453999933],[145.06194940900002,-37.729826983999942],[145.06227158900003,-37.729861913999969],[145.06256716900009,-37.729893773999947],[145.06350065800007,-37.729994593999947],[145.06445717800011,-37.730097883999974],[145.06458707800005,-37.730111883999939],[145.06535700800009,-37.72972679399993],[145.06634104800003,-37.729833923999934],[145.06650704800006,-37.72985188399997],[145.06727807800007,-37.730070333999947],[145.06745141800002,-37.730119323999929],[145.06785280800011,-37.73012668399997],[145.06813202800004,-37.730131713999981],[145.06869471700008,-37.730141983999943],[145.06956304700009,-37.730236133999938],[145.06950512700007,-37.730566703999955],[145.06964342700007,-37.730529093999962],[145.06982018700012,-37.73054983399993],[145.06978467700003,-37.730755353999939],[145.07012492700005,-37.730794113999934],[145.0704649270001,-37.730830853999976],[145.07047992700006,-37.730831853999973],[145.07055292700011,-37.730840843999943],[145.07080992700003,-37.730867853999939],[145.07084094700008,-37.730871843999978],[145.07102990700002,-37.73089084399993],[145.07115294700009,-37.730903853999962],[145.07122094700003,-37.730911843999934],[145.07132395700012,-37.730921853999973],[145.07141994700009,-37.730932843999938],[145.07149491700011,-37.730939853999985],[145.07166690700012,-37.730958853999937],[145.07190795700012,-37.730983843999979],[145.0721809370001,-37.731013853999968],[145.07225090700001,-37.731020583999964],[145.07222499700003,-37.731182813999965],[145.07191306700008,-37.733012593999945],[145.07196507700007,-37.733001273999946],[145.07192700700011,-37.733227893999981],[145.07253352600003,-37.733022653999967],[145.07262696600003,-37.732990173999951],[145.07271916600007,-37.732957613999929],[145.07346394600006,-37.732704843999954],[145.0734959560001,-37.732513853999933],[145.07385489600006,-37.732553844999984],[145.07411919600008,-37.732581964999952],[145.07414292600004,-37.732445844999972],[145.07476418600004,-37.732513854999979],[145.07475619600007,-37.732570854999949],[145.07496190600011,-37.732591844999945],[145.07525763600006,-37.732620784999938],[145.07532701600007,-37.731725084999937],[145.07649341600006,-37.731840374999933],[145.07642643600002,-37.732192104999967],[145.07629824600008,-37.732765984999958],[145.0762313460001,-37.733154104999983],[145.07876498500002,-37.73342904499998],[145.07847791500012,-37.734879854999974],[145.07841115500003,-37.735209704999932],[145.07927876500003,-37.734713094999961],[145.07981896500007,-37.734403884999949],[145.08069602500007,-37.733901944999957],[145.08259672500003,-37.732814034999933],[145.08340720500007,-37.732350314999962],[145.08408993500007,-37.731958854999959],[145.08489056400003,-37.731717264999929],[145.08505795400004,-37.731666574999963],[145.08542485400005,-37.73155875499998],[145.08614393400012,-37.731337734999954],[145.08848461400009,-37.730628684999942],[145.08964385400009,-37.730277515999944],[145.09027278400004,-37.730087005999962],[145.09152725400008,-37.729842585999961],[145.09288278300005,-37.729579625999975],[145.09553772300012,-37.729063545999963],[145.09656016300005,-37.728864615999953],[145.09725891300002,-37.728728715999978],[145.09806235300005,-37.728830905999985],[145.09947060200011,-37.729010025999969],[145.09950348200005,-37.728873315999977],[145.09981592200006,-37.726977095999985],[145.10068192200004,-37.727067845999954],[145.10153131200002,-37.727147465999963],[145.10127694200003,-37.728696835999983],[145.10122734200002,-37.729003055999954],[145.10119573200006,-37.729229415999953],[145.10154974200009,-37.729274485999952],[145.10190328200008,-37.729319475999944],[145.10202136200007,-37.729334335999965],[145.10445171100002,-37.729653736999978],[145.10583780100012,-37.729835956999977],[145.1071128210001,-37.730001846999983],[145.10711391100006,-37.729945866999969],[145.10719779100009,-37.72975787699994],[145.10721582100007,-37.729514876999929],[145.10736879100011,-37.729291836999948],[145.10750706100009,-37.729194826999958],[145.10764276100008,-37.729061806999937],[145.10772481100003,-37.728923836999968],[145.10773098100003,-37.728900806999945],[145.10771295100005,-37.72870288699994],[145.10762586100009,-37.728538816999958],[145.10743000100001,-37.728211846999955],[145.10726908100003,-37.727839886999959],[145.10705993100009,-37.727619826999955],[145.10694798100008,-37.727527846999976],[145.10681691100001,-37.727353866999977],[145.10678596100001,-37.727218876999984],[145.10679604100005,-37.726831876999938]]]},"properties":{"FID":5,"Asset_ID":"AE0EFF729C4B773F571783B3DB5FCDC2","SubAsstID":"17D601711FE4C2823B08D84C4DAFB3A4","SubAsstNm":"Carawah","Region":"APAC","Country":"Australia"}},{"type":"Feature","id":6,"geometry":{"type":"Polygon","coordinates":[[[151.1472098590001,-33.944423001999951],[151.14768015800007,-33.944478661999938],[151.14830222800003,-33.944552461999933],[151.14879566800005,-33.944612011999936],[151.14942039800007,-33.944686381999929],[151.14966808800011,-33.944703661999938],[151.1503556780001,-33.944795271999965],[151.15035779800007,-33.944885401999954],[151.15045641800009,-33.94487331199997],[151.15046743800008,-33.944919321999976],[151.15047243800007,-33.94495931199998],[151.15266842800008,-33.944792311999947],[151.15409243700003,-33.945403311999939],[151.15712131700002,-33.946769612999958],[151.15719840700001,-33.946710322999934],[151.1574344170001,-33.946562322999966],[151.15760844700003,-33.946455312999944],[151.15773243700005,-33.946330312999976],[151.15780543700009,-33.946230322999952],[151.15793741700008,-33.946215312999982],[151.15799943700006,-33.946166312999935],[151.15810042700002,-33.946159312999953],[151.15823244700005,-33.946161312999948],[151.15830344700009,-33.946136322999962],[151.15832942700001,-33.94611630299994],[151.1583444370001,-33.946103322999932],[151.15834541700008,-33.946053312999936],[151.15832942700001,-33.945982312999945],[151.15830541700007,-33.945885312999962],[151.1584304270001,-33.945905312999969],[151.15859741700001,-33.945968302999972],[151.15873545700003,-33.946025322999958],[151.15890240700003,-33.946077302999981],[151.15905643700012,-33.946079302999976],[151.1591524370001,-33.946050312999944],[151.15961641700005,-33.945922312999983],[151.15995539700009,-33.945812312999976],[151.16014745700011,-33.945753312999955],[151.16030283700002,-33.945702362999953],[151.1602675470001,-33.945669562999967],[151.16039441700002,-33.945626312999934],[151.16054943600011,-33.945583322999937],[151.16065644600008,-33.945521312999972],[151.16067743600001,-33.94550430299995],[151.16070444600007,-33.945477312999969],[151.16070444600007,-33.945433322999975],[151.16065440600005,-33.945393302999946],[151.16046142700009,-33.945251322999979],[151.16020640700003,-33.945024302999968],[151.15999441700012,-33.944788322999955],[151.15988640700004,-33.944537312999955],[151.15983341700007,-33.944179322999958],[151.15988345700009,-33.943592312999954],[151.15990841700011,-33.943416322999951],[151.1599892370001,-33.943117712999936],[151.16001039700006,-33.943065322999928],[151.16006441700006,-33.942834312999935],[151.16010343700009,-33.942651312999942],[151.16012044700005,-33.942552312999965],[151.16014541700008,-33.942470302999936],[151.16017939700009,-33.942297312999983],[151.16022845700002,-33.942125312999963],[151.16025440700002,-33.94199931299994],[151.16028345700011,-33.941881322999961],[151.16030345700005,-33.941764312999965],[151.16030940700011,-33.941681312999947],[151.16050442700009,-33.941159322999965],[151.16059943700009,-33.940683312999965],[151.16071043700003,-33.940209312999968],[151.16079741700003,-33.939844302999973],[151.16092443700006,-33.939494322999963],[151.16098841700011,-33.939086302999954],[151.16111040700002,-33.93850931299994],[151.16122541700008,-33.937971312999935],[151.16122442700009,-33.937326302999963],[151.16101042800005,-33.936480322999955],[151.1609554580001,-33.936137312999961],[151.1609554580001,-33.935950312999978],[151.16087041800006,-33.935759322999957],[151.16077343800009,-33.935217302999945],[151.16068842800007,-33.934817322999947],[151.16056144800007,-33.934323312999936],[151.16048241800002,-33.93406631299996],[151.16046168800005,-33.933996302999958],[151.16052399800003,-33.933985462999942],[151.16048030800005,-33.933845342999973],[151.16044033800006,-33.933794302999956],[151.16031831800012,-33.933689282999978],[151.16015738800002,-33.933533302999933],[151.15996550800003,-33.933427282999958],[151.15975132800008,-33.933321282999941],[151.15935456800003,-33.933170342999972],[151.15890528800003,-33.933018342999958],[151.15848732800009,-33.93287434299998],[151.15801936900004,-33.932696312999951],[151.15736630900005,-33.932464281999955],[151.15675536900005,-33.932233351999969],[151.15663550900001,-33.93218232199996],[151.15647745900003,-33.932094301999939],[151.15635039900008,-33.932017361999954],[151.15626144900011,-33.931941311999935],[151.15616030900003,-33.93184329199994],[151.15598536900006,-33.931610281999951],[151.15591729900007,-33.931496341999946],[151.15588130900005,-33.931394281999928],[151.15585144900001,-33.931286281999974],[151.15582155900006,-33.931168281999931],[151.15582658900007,-33.930932321999933],[151.15583560900006,-33.930836281999973],[151.15586943900007,-33.930729281999959],[151.15597634900007,-33.930570331999945],[151.15612143900012,-33.930374321999977],[151.15635328900009,-33.930088291999937],[151.15672656900006,-33.92964729199997],[151.15690841900005,-33.929439291999984],[151.15699728900006,-33.929327351999973],[151.15691629900005,-33.929237351999973],[151.15677160900009,-33.929147341999965],[151.15665313900001,-33.929085001999965],[151.15650158900007,-33.929005321999966],[151.15592642000001,-33.927963311999974],[151.15557533000003,-33.927331331999937],[151.15554653000004,-33.927223331999983],[151.15542338000012,-33.926988341999959],[151.15536257000008,-33.926846311999952],[151.15537155000004,-33.926705291999951],[151.15535644000011,-33.926588281999955],[151.15528121000011,-33.926472541999942],[151.15520956000012,-33.926362301999973],[151.15514043000007,-33.926332331999959],[151.15506466000011,-33.926338561999955],[151.15498125000011,-33.926180551999948],[151.15482627000006,-33.926253551999935],[151.15463527000009,-33.926335581999979],[151.15438926000002,-33.926462571999934],[151.15405127000008,-33.92668157199995],[151.15350530000012,-33.927136581999946],[151.15299434000008,-33.927464581999971],[151.15269292000005,-33.92756977199997],[151.15242132000003,-33.927664571999969],[151.15192836000006,-33.927710601999934],[151.15116335000005,-33.927710601999934],[151.15035236000006,-33.927601591999974],[151.14971306000007,-33.927492781999945],[151.14927736100003,-33.92741861199994],[151.14857539100012,-33.927318621999973],[151.14804647100004,-33.927245711999944],[151.14791540100009,-33.927227641999934],[151.14754138100011,-33.927155631999938],[151.14713295100012,-33.927036180999949],[151.14675653100005,-33.926984120999975],[151.14616544100011,-33.926963640999929],[151.14586541100005,-33.926945640999975],[151.14546443100005,-33.92699165099998],[151.14499044100012,-33.927145640999981],[151.14458310100008,-33.927411750999966],[151.14430522100008,-33.927623700999959],[151.14408118100005,-33.927843080999935],[151.14380645100005,-33.928010670999981],[151.14360548100012,-33.928101670999979],[151.14350551100006,-33.928111680999962],[151.14343251100001,-33.928065670999956],[151.14332830100011,-33.927820760999964],[151.1431624810001,-33.927668320999942],[151.14294738100011,-33.927593950999949],[151.14265750100003,-33.927528670999948],[151.14243949200011,-33.927519680999978],[151.1422114720001,-33.927564670999971],[151.14201525200008,-33.927586520999967],[151.14181362200009,-33.927597670999944],[151.14160948200004,-33.927619690999961],[151.14116348200002,-33.927610680999976],[151.14103650200002,-33.927582690999941],[151.14092653200009,-33.92750068099997],[151.14082652200011,-33.927400680999938],[151.14069950200007,-33.927327680999952],[151.14056251200009,-33.927291680999929],[151.14039253200008,-33.927330680999944],[151.14018685200006,-33.927344810999955],[151.13993613200012,-33.927355420999959],[151.13980952200006,-33.927401700999951],[151.13974940200012,-33.927456720999942],[151.1395884420001,-33.927615300999946],[151.13936641200007,-33.927759310999932],[151.13918044200011,-33.927896320999935],[151.13900973200009,-33.928112140999929],[151.13885172200003,-33.928356430999941],[151.1387655420001,-33.928535200999931],[151.13867937200007,-33.928755660999968],[151.13851420200001,-33.929059520999942],[151.1383725820001,-33.929268700999955],[151.13833659200009,-33.929325700999982],[151.13828780200004,-33.929523650999954],[151.13828060200001,-33.929553700999975],[151.13817556200001,-33.929638700999931],[151.13801857200008,-33.929721730999972],[151.13786060200005,-33.929905710999947],[151.13768164200008,-33.930261730999973],[151.13762762200008,-33.930346720999978],[151.13750662200005,-33.930416720999972],[151.13733460200001,-33.930428730999949],[151.13675162200002,-33.930405730999951],[151.13634162200003,-33.930298729999947],[151.13584463200004,-33.930291729999965],[151.13572462200011,-33.930275729999948],[151.13531666200004,-33.930097739999951],[151.13501064200011,-33.929935739999962],[151.13475463200007,-33.929888749999975],[151.13461765200009,-33.929886729999964],[151.13440967200006,-33.929955739999969],[151.13421366200009,-33.930310729999974],[151.13410168200005,-33.930695759999935],[151.13381822200006,-33.931104989999938],[151.13374668200004,-33.93124875999996],[151.13372767200008,-33.931348749999984],[151.13370967200001,-33.93139175999994],[151.13369296200005,-33.931418439999959],[151.13355378200004,-33.931501949999983],[151.13337296200007,-33.931689519999964],[151.13326492200008,-33.931702929999972],[151.13328445200011,-33.931714309999961],[151.13327645200002,-33.931741299999942],[151.1332814220001,-33.931746319999945],[151.13328543200009,-33.931755309999971],[151.13329043200008,-33.931776299999967],[151.13329543200007,-33.931785309999952],[151.13330346200007,-33.931795299999976],[151.13332544200011,-33.931813299999931],[151.13335945200004,-33.931833299999937],[151.13338643200007,-33.931843309999977],[151.1334104120001,-33.931848309999964],[151.13344045200006,-33.931850299999951],[151.13347144200009,-33.931850299999951],[151.13349345200004,-33.931846309999969],[151.13353841200012,-33.931828309999958],[151.13355842200008,-33.931822309999973],[151.13357645200006,-33.93182330999997],[151.13359744200011,-33.931834299999935],[151.13360243200009,-33.931841309999982],[151.13360641200006,-33.931849309999961],[151.13360944200008,-33.931859309999936],[151.13361043200007,-33.931868299999962],[151.13360864200001,-33.931880269999965],[151.13358846200003,-33.93192629999993],[151.13358444200003,-33.931945299999938],[151.13358444200003,-33.931971309999938],[151.13358243200003,-33.93198431999997],[151.13357842200003,-33.931997309999929],[151.13357546200007,-33.932004319999976],[151.13356243200008,-33.932024319999982],[151.13355145200012,-33.932036299999936],[151.13354042200001,-33.932046309999976],[151.13353743200003,-33.932050309999966],[151.13352944200005,-33.932066309999982],[151.13352243200006,-33.932081309999944],[151.13351743200008,-33.932098319999966],[151.1335094320001,-33.932120309999959],[151.1335054220001,-33.932134319999932],[151.13350345200001,-33.932150319999948],[151.13436503200012,-33.932258709999928],[151.13495308200004,-33.932321019999961],[151.13575371200011,-33.932418379999945],[151.13638082200009,-33.932482020999942],[151.13766062200011,-33.932611710999936],[151.13798094100002,-33.932644250999942],[151.13802963100011,-33.932822330999954],[151.1383364510001,-33.932864310999946],[151.13831342100002,-33.932973310999955],[151.13830845100006,-33.933007310999983],[151.13829144100009,-33.933082310999964],[151.13828641100008,-33.933116320999943],[151.13827144100003,-33.933189320999929],[151.13826542100003,-33.933224320999955],[151.13824845100009,-33.933299320999936],[151.13824345100011,-33.933333300999948],[151.13822746100004,-33.933406300999934],[151.13822345100004,-33.933431310999936],[151.13820541100006,-33.933514310999954],[151.1382004510001,-33.933548310999981],[151.13818340100011,-33.933623310999963],[151.13817840100012,-33.933657310999934],[151.13816143100007,-33.933731310999974],[151.13815742100007,-33.933766310999943],[151.13814044100002,-33.933839310999929],[151.13813544100003,-33.933874320999962],[151.13811843100007,-33.933947320999948],[151.13811343100008,-33.933982320999974],[151.13809745100002,-33.93405532099996],[151.13809146100004,-33.93409232099998],[151.13804894100008,-33.934301220999942],[151.13801043100011,-33.934490310999934],[151.13798944100006,-33.93460031099994],[151.13787545100001,-33.935161310999945],[151.13773945100002,-33.935224320999964],[151.13768941100011,-33.935246310999958],[151.13771569100004,-33.935280570999964],[151.13826958100003,-33.936010660999955],[151.13837671100009,-33.936098090999963],[151.1369254010001,-33.936828250999952],[151.1360791410001,-33.937242810999976],[151.13596738100011,-33.937283960999935],[151.13595990100009,-33.937355310999976],[151.1359292410001,-33.937404169999979],[151.13589080100007,-33.937473269999941],[151.13585938100005,-33.937494879999974],[151.13585722100004,-33.937531749999948],[151.13585708100004,-33.937605409999946],[151.13590026100007,-33.937686309999947],[151.13603877100002,-33.937851720999959],[151.13592843100002,-33.937913310999932],[151.13565144100005,-33.938056309999979],[151.13543842100012,-33.938167309999983],[151.13522844100009,-33.938274319999948],[151.13497644100005,-33.938404319999961],[151.13494746100002,-33.938420299999962],[151.13466846100005,-33.93856330999995],[151.13452643100004,-33.938637309999933],[151.13438543100006,-33.938709309999979],[151.13410343100009,-33.938855309999951],[151.13366142100006,-33.939082309999947],[151.13357418100009,-33.939124009999944],[151.13321959100006,-33.938704069999972],[151.13226033100011,-33.939200889999938],[151.13076266200005,-33.939976599999966],[151.13021549200005,-33.940259549999951],[151.13136995100001,-33.941675579999981],[151.13042909100011,-33.94219370999997],[151.13080624100007,-33.942657689999976],[151.13031835100003,-33.943056719999959],[151.13036744100009,-33.943145309999977],[151.13049946100011,-33.943133309999951],[151.13074241100003,-33.943424309999955],[151.13087643100005,-33.943377299999952],[151.13100345100008,-33.943334309999955],[151.13139043100011,-33.943200309999952],[151.13146642100003,-33.943293309999945],[151.13168746100007,-33.94355730999996],[151.13169243100003,-33.94356431999995],[151.13176740100005,-33.943654299999935],[151.13184346100002,-33.943747299999984],[151.13182945100004,-33.943751319999933],[151.13190446100009,-33.943838299999982],[151.13187544100003,-33.943848309999964],[151.13193946100012,-33.943931299999974],[151.13209444100005,-33.943880319999948],[151.13221744100008,-33.943838299999982],[151.13233545100002,-33.943796309999982],[151.13264442100001,-33.94368830999997],[151.13270242100009,-33.943667309999967],[151.13329255100007,-33.943460829999935],[151.13351830100009,-33.943379969999967],[151.13362901100004,-33.943353679999973],[151.13373741100008,-33.943326319999983],[151.13530943000012,-33.942788319999977],[151.13544043000002,-33.942744309999966],[151.1360434500001,-33.942537310999967],[151.13625642000011,-33.942722310999955],[151.13648845000012,-33.942991320999965],[151.13654642000006,-33.943012320999969],[151.13655145000007,-33.943019310999944],[151.13659044000008,-33.943064300999936],[151.13712892000001,-33.94273887099996],[151.13720677000003,-33.942687490999958],[151.13782841000011,-33.943410990999951],[151.13790903000006,-33.943456080999965],[151.13801415000012,-33.943484790999946],[151.1380984000001,-33.943490910999969],[151.13828524000007,-33.943380650999984],[151.13835470000004,-33.943388400999936],[151.1410388700001,-33.943705660999967],[151.14086247000012,-33.943927140999961],[151.14075304000005,-33.944122350999976],[151.14102988900004,-33.944228640999938],[151.14106080900001,-33.944174540999938],[151.14107894900008,-33.944145180999953],[151.14121341900011,-33.944179320999979],[151.14132356900006,-33.944194970999945],[151.14143091900007,-33.944212080999932],[151.14173441900004,-33.944320300999948],[151.14191041900006,-33.944384310999965],[151.14198524900007,-33.944408550999981],[151.14221920900002,-33.944003470999974],[151.14236250900012,-33.943827130999978],[151.14244941900006,-33.943743620999953],[151.14246317900006,-33.94385730099998],[151.14307213900008,-33.943929030999982],[151.14407150900001,-33.944049980999978],[151.14487432900012,-33.944145850999973],[151.14571130900003,-33.944245120999938],[151.14643309900009,-33.944330811999976],[151.14641258900008,-33.944420071999957],[151.14632242900007,-33.944942311999966],[151.14664698900003,-33.945000831999948],[151.1469884490001,-33.94506230199994],[151.14709144800008,-33.945083321999959],[151.14710140800003,-33.945025301999976],[151.14718860900007,-33.94451141199994],[151.1472098590001,-33.944423001999951]]]},"properties":{"FID":6,"Asset_ID":"AE0EFF729C4B773F571783B3DB5FCDC2","SubAsstID":"9AB886D5E5EB274CA0A36CEB349A8B93","SubAsstNm":"Athertons","Region":"APAC","Country":"Australia"}},{"type":"Feature","id":7,"geometry":{"type":"Polygon","coordinates":[[[138.48616444900006,-35.138694924999982],[138.48608093900009,-35.137798524999937],[138.48607480900012,-35.137627694999935],[138.48625949900008,-35.137617544999955],[138.48621266900011,-35.136936864999939],[138.48616985900003,-35.136311994999971],[138.48611298900005,-35.135482644999968],[138.48603925900011,-35.135486484999944],[138.48600071900012,-35.134982544999957],[138.4859399390001,-35.134151714999973],[138.4858519390001,-35.132954024999947],[138.48573930000009,-35.131421534999959],[138.48572098000011,-35.131154994999974],[138.48567076000006,-35.130425834999983],[138.48560181000005,-35.129431864999958],[138.48551344000009,-35.128158844999973],[138.48550191000004,-35.127992264999932],[138.48554198000011,-35.127506494999977],[138.48567127000001,-35.126854604999949],[138.48583541000005,-35.126308854999934],[138.48607386000003,-35.125694344999943],[138.48613781000006,-35.125529544999949],[138.48654785000008,-35.124661044999982],[138.48678287000007,-35.124161544999936],[138.48655661000009,-35.124135114999945],[138.4852748400001,-35.124377214999981],[138.48516987000005,-35.124372684999969],[138.48520757000006,-35.125078204999966],[138.48326464000002,-35.125175124999942],[138.48294713000007,-35.12519978499995],[138.48273871000004,-35.125249104999966],[138.48257490000003,-35.125318124999978],[138.4824474400001,-35.125401474999933],[138.4823131600001,-35.125509654999973],[138.48206656000002,-35.125771724999936],[138.48195856000007,-35.125905554999974],[138.48189089000005,-35.126049654999974],[138.48185559000001,-35.126232174999984],[138.48189016000003,-35.126451864999979],[138.48203922000005,-35.126945964999948],[138.48160112000005,-35.127068194999936],[138.48154640100006,-35.126361324999948],[138.48149059100001,-35.126130484999976],[138.48142000100006,-35.125962794999964],[138.48131236100005,-35.125770024999952],[138.48118304100001,-35.125614244999952],[138.48103876100004,-35.125615944999936],[138.47939071100006,-35.126362234999931],[138.47755144100006,-35.124840954999968],[138.47532629200009,-35.126428734999934],[138.47534224200001,-35.126545454999984],[138.47530625200011,-35.126547474999938],[138.47528724200004,-35.126549464999982],[138.4752682620001,-35.126556464999965],[138.47525727200002,-35.126557464999962],[138.47523727200007,-35.126557464999962],[138.47522128200012,-35.126561454999944],[138.47520026200004,-35.12656547499995],[138.47518423200006,-35.126566474999947],[138.4751712420001,-35.126572464999981],[138.47515427200005,-35.126571464999984],[138.47511926200002,-35.126575464999974],[138.47510225200006,-35.126579454999955],[138.47507426200002,-35.126577464999968],[138.47503327200002,-35.126577464999968],[138.47500527200009,-35.126574464999976],[138.4749922420001,-35.126577464999968],[138.47496626200007,-35.126578464999966],[138.4749512520001,-35.126583474999961],[138.47492023200004,-35.126591464999933],[138.4749082620001,-35.12659546499998],[138.47489826200001,-35.12660247499997],[138.47487428200009,-35.126626464999958],[138.47486128200012,-35.126635454999985],[138.47485325200012,-35.126654454999937],[138.47484325200003,-35.126665464999974],[138.47483825200004,-35.126675474999956],[138.47481025200011,-35.126707464999981],[138.47480226200003,-35.126722464999943],[138.47478627200007,-35.126744464999945],[138.47478226200008,-35.126758464999966],[138.4747702520001,-35.126771464999933],[138.4747642320001,-35.126785454999947],[138.47475324200002,-35.126797464999981],[138.47474025200006,-35.126818454999977],[138.47473225200008,-35.126835464999942],[138.4747232420001,-35.126850464999961],[138.47472127200001,-35.126861474999941],[138.47471225200002,-35.12687845499994],[138.47470127200006,-35.126908464999929],[138.47469623200004,-35.126918474999968],[138.47468824200007,-35.126943464999954],[138.47468626200009,-35.126958464999973],[138.47468926200008,-35.126975474999938],[138.47469024200007,-35.126991474999954],[138.47469524200005,-35.127006454999957],[138.47470324200003,-35.127022464999982],[138.47474726200005,-35.127129464999939],[138.47475226200004,-35.127145464999955],[138.47475824200012,-35.127176474999942],[138.47475926200002,-35.127193474999956],[138.47476226200001,-35.127211454999951],[138.47476324200011,-35.127236464999953],[138.47476726200011,-35.127249474999928],[138.4747682420001,-35.127269474999935],[138.47476627200001,-35.127281464999953],[138.47476025200001,-35.127301454999952],[138.47474926200005,-35.127317464999976],[138.47473225200008,-35.127353464999942],[138.47471926200001,-35.127372464999951],[138.47470324200003,-35.127389464999965],[138.47469024200007,-35.127407464999976],[138.4746752420001,-35.127425464999931],[138.47465925200004,-35.12744046499995],[138.4745872420001,-35.127487454999937],[138.47455326200009,-35.127514464999933],[138.47453223200012,-35.127525454999954],[138.47448424200002,-35.127553464999949],[138.47447223200004,-35.127565474999983],[138.47445223200009,-35.12757546499995],[138.47441726200009,-35.127604464999933],[138.47440226200001,-35.127620474999958],[138.47438423200003,-35.127634454999964],[138.47435327200003,-35.127660464999963],[138.47434024200004,-35.12766946499994],[138.47432024200009,-35.127686464999954],[138.47430823200011,-35.127701464999973],[138.47428725200007,-35.127720464999982],[138.47426527200003,-35.127737464999939],[138.47425425200004,-35.127748474999976],[138.4742332620001,-35.127764454999976],[138.47422023200011,-35.127775464999957],[138.47417326200002,-35.127818454999954],[138.47415625200006,-35.127832464999983],[138.47413924200009,-35.127844474999961],[138.47412325200003,-35.127854454999976],[138.4740972620001,-35.127872464999939],[138.47408624200011,-35.127878474999932],[138.47407525200003,-35.12788646499996],[138.47391126200012,-35.128026474999956],[138.47312425200005,-35.128142464999939],[138.47215327200001,-35.127885464999963],[138.47193924200008,-35.127930144999937],[138.47066823200009,-35.128195474999984],[138.47016526200002,-35.12845045499995],[138.46962627200003,-35.12836346499995],[138.46946122200006,-35.128871464999975],[138.46923112200011,-35.129028934999951],[138.46923911200008,-35.129098624999983],[138.46927616200003,-35.12928541499997],[138.46928441200009,-35.129366424999944],[138.46929124200005,-35.129501424999944],[138.46928441200009,-35.129708414999982],[138.46923437200007,-35.129906424999945],[138.46923112200011,-35.130014424999956],[138.46925813200005,-35.130555494999953],[138.46935533200008,-35.130999474999953],[138.46938019200002,-35.131261454999958],[138.46938727200006,-35.13129790499994],[138.46939920200009,-35.131355604999953],[138.46937621200004,-35.131733614999973],[138.46939117200009,-35.131958614999974],[138.46933624200005,-35.133039624999981],[138.46923725200008,-35.133379634999983],[138.46917122200011,-35.133756624999933],[138.46915724200005,-35.133864634999952],[138.46904625200011,-35.13425962499997],[138.46897872200009,-35.13443274499997],[138.46876027200005,-35.134992634999946],[138.46872428200004,-35.135090624999975],[138.46857127200008,-35.135403624999981],[138.46845331200007,-35.135688614999935],[138.46845382200001,-35.135859394999954],[138.46845429200005,-35.136013624999975],[138.46849827200003,-35.136357634999968],[138.46866333200012,-35.136693634999972],[138.46875125200006,-35.13703551499998],[138.4691353820001,-35.137746504999939],[138.46930638200001,-35.138245464999954],[138.4693256920001,-35.138288124999974],[138.46936832200004,-35.138382444999934],[138.46954327200001,-35.138746504999972],[138.46958429200004,-35.13884647499998],[138.46962320200009,-35.138991474999955],[138.46966901200005,-35.13923826499996],[138.46972723200008,-35.139552434999985],[138.4697203720001,-35.139777454999944],[138.46976720200007,-35.140022424999984],[138.46976512200001,-35.140090934999932],[138.46975712200003,-35.140355424999939],[138.46965737200003,-35.140723434999984],[138.46956342200008,-35.140928444999929],[138.46949429200004,-35.141026464999982],[138.46940840200011,-35.141312614999947],[138.46938413200007,-35.141393484999981],[138.4693041920001,-35.141517504999968],[138.46918039200011,-35.141605434999974],[138.4689694220001,-35.141691484999967],[138.4689363120001,-35.141699494999955],[138.46885711200002,-35.141761504999977],[138.46878943200011,-35.141840424999941],[138.46864935200006,-35.142090454999959],[138.46850214200003,-35.142240464999929],[138.46829011200009,-35.14236241499998],[138.46805994200008,-35.142573194999954],[138.46815831200001,-35.142669504999958],[138.46836844200004,-35.142924944999947],[138.46970704100011,-35.142858864999937],[138.46964551100007,-35.14309502499998],[138.46965879100003,-35.143655904999946],[138.46961992100012,-35.143981074999942],[138.47125183100002,-35.143912594999961],[138.47244089100002,-35.143849484999976],[138.47262117100001,-35.143848934999937],[138.47372102100007,-35.143798924999942],[138.47451920100002,-35.143762644999981],[138.47449865100009,-35.143542774999958],[138.47549189000006,-35.143503624999937],[138.47560906000001,-35.143494824999948],[138.47572484000011,-35.143492284999979],[138.47734365000008,-35.143397774999983],[138.47742760000006,-35.143409134999956],[138.47787330000006,-35.14338924499998],[138.47829053000009,-35.142925654999942],[138.47832141000004,-35.142890204999958],[138.47835824000003,-35.142847874999973],[138.47916821000001,-35.141972084999963],[138.47916963000011,-35.142023034999966],[138.48011071000008,-35.141984054999966],[138.48114279000004,-35.142698494999934],[138.4812562300001,-35.142688764999946],[138.48126115000002,-35.142755524999984],[138.48138025000003,-35.142747464999957],[138.48246524900003,-35.142691464999984],[138.48267924900006,-35.142679474999966],[138.48349925900004,-35.142637454999942],[138.48364127900004,-35.142629544999977],[138.48365887900002,-35.143125264999981],[138.4844181090001,-35.143107614999963],[138.48544985900003,-35.143055154999956],[138.48660255900006,-35.142999804999931],[138.48649422900007,-35.141653754999936],[138.48648663900008,-35.141263614999957],[138.48641896900006,-35.140758454999968],[138.48636750900005,-35.14003917499997],[138.48631964900005,-35.139573454999947],[138.48622850900006,-35.138693854999929],[138.48616444900006,-35.138694924999982]]]},"properties":{"FID":7,"Asset_ID":"AE0EFF729C4B773F571783B3DB5FCDC2","SubAsstID":"8527FD0D522BA3CBB07DB3AE12A9B1B9","SubAsstNm":"Amarina","Region":"APAC","Country":"Australia"}},{"type":"Feature","id":8,"geometry":{"type":"Polygon","coordinates":[[[150.90272052100011,-33.890953298999932],[150.9025764910001,-33.890838278999979],[150.9015093810001,-33.890120587999945],[150.90132133100008,-33.889979117999928],[150.90110835100006,-33.889847547999977],[150.89960255100004,-33.888856447999956],[150.89903114200001,-33.888453367999944],[150.89758435200008,-33.88744345799995],[150.89633302200002,-33.886601337999934],[150.89609661200006,-33.88645719799996],[150.89603442200007,-33.886448877999953],[150.89598083200008,-33.886421347999942],[150.8959438920001,-33.886378797999953],[150.89574004200006,-33.886197237999966],[150.89494843300008,-33.88565413799995],[150.89474367300011,-33.885511467999947],[150.89391533300011,-33.884941457999957],[150.89319691300011,-33.884454707999964],[150.8924794830001,-33.883964127999946],[150.89175880300002,-33.883471317999977],[150.8910985230001,-33.883030756999972],[150.89053222400003,-33.88263922699997],[150.89038849400004,-33.882542986999965],[150.89023847400006,-33.882622276999939],[150.88941948400009,-33.883459296999945],[150.88902349400007,-33.883862336999982],[150.88683149400003,-33.886094286999935],[150.88649649400008,-33.88586629699995],[150.88573149400008,-33.88664229699998],[150.88487045400007,-33.88734928699995],[150.88452750400006,-33.887655276999965],[150.88366847400005,-33.888374286999976],[150.88328347400011,-33.88869529699997],[150.88276736400007,-33.888846126999965],[150.88257905400008,-33.888782816999935],[150.88243919400009,-33.888908116999971],[150.88208097400002,-33.888694316999931],[150.88188384400007,-33.888569846999928],[150.88161038400006,-33.88843716699995],[150.88123242400002,-33.888261806999935],[150.88097021400006,-33.888190166999948],[150.88060535400007,-33.888124476999963],[150.88022024400004,-33.888069285999961],[150.87988707400007,-33.888048555999944],[150.87937976500007,-33.888035375999948],[150.87848507500007,-33.888003505999961],[150.87802002500007,-33.887958935999961],[150.87734616500006,-33.887859095999943],[150.87709493500006,-33.887810885999954],[150.8767865850001,-33.887742765999974],[150.87659729500001,-33.887698645999933],[150.87580896500003,-33.887500345999968],[150.8755647050001,-33.887437475999945],[150.87532143500005,-33.887371855999959],[150.87489898500007,-33.887245875999952],[150.87471995500005,-33.887188205999962],[150.87448350500006,-33.887107035999975],[150.87413241500008,-33.886977935999937],[150.87390107500005,-33.886889375999942],[150.87363061500002,-33.886783155999979],[150.8730318260001,-33.886551475999966],[150.8729204660001,-33.886507055999971],[150.87182732600002,-33.886076745999958],[150.87124712600007,-33.885859925999966],[150.87082500600002,-33.885715365999943],[150.8704125160001,-33.885586945999933],[150.87029608600005,-33.885547275999954],[150.86982147600008,-33.88536514499998],[150.86845053600007,-33.884828734999928],[150.86810560700007,-33.884692204999965],[150.86785149700006,-33.884595744999956],[150.86764398700006,-33.88451321499997],[150.86747926700002,-33.884438534999958],[150.86722880700006,-33.884330194999961],[150.86708992700005,-33.884255234999955],[150.86697209700003,-33.884197794999977],[150.86671553700012,-33.884067994999953],[150.8664804770001,-33.883967414999972],[150.8662487470001,-33.883870644999945],[150.86612197700003,-33.883822574999954],[150.8658950570001,-33.88372822499997],[150.86553388700008,-33.883593884999982],[150.86528722700007,-33.883511854999938],[150.86504431700007,-33.883443994999936],[150.86492342700012,-33.883415784999954],[150.86479297700009,-33.883392024999978],[150.86463022700002,-33.883458274999953],[150.86421007700005,-33.884192574999929],[150.86403943700009,-33.884456364999949],[150.86370107700009,-33.884918514999981],[150.86366789700003,-33.884963784999968],[150.86326508700006,-33.88546419499994],[150.86312715700012,-33.885650324999972],[150.86281292700005,-33.886074304999966],[150.86267108700008,-33.886282304999952],[150.86254545700001,-33.886466434999932],[150.86238306700011,-33.886717274999967],[150.86199284700001,-33.887357704999943],[150.86182395700007,-33.887622604999933],[150.86162276700009,-33.887938194999947],[150.86139329700006,-33.888319424999963],[150.86120155700007,-33.888638274999948],[150.86081692700009,-33.889277044999972],[150.85992843700012,-33.890435994999962],[150.85891797700003,-33.891754084999945],[150.8588684770001,-33.891822324999964],[150.8579399570001,-33.893102233999969],[150.85768105700004,-33.893459093999979],[150.85713746700003,-33.894373293999934],[150.85718246700003,-33.894380283999965],[150.86003147600002,-33.894771284999933],[150.86086999600002,-33.894897084999968],[150.86161638600004,-33.894997204999981],[150.86309254600008,-33.895195194999928],[150.8641490760001,-33.895336904999965],[150.86492484600012,-33.895440944999962],[150.86625990500011,-33.895620004999955],[150.86656720500002,-33.895667554999932],[150.86765548500011,-33.895805284999938],[150.86783149500002,-33.895828284999936],[150.86784546500007,-33.895830284999931],[150.86813046500004,-33.89594929499998],[150.86881487500011,-33.896228974999929],[150.86956987500002,-33.896552965999945],[150.87024910500008,-33.89683830599995],[150.87150587400004,-33.897365945999979],[150.87215009400006,-33.897639595999976],[150.87318680400006,-33.898079935999931],[150.87448595400008,-33.898633365999956],[150.87466480400008,-33.898709915999973],[150.87586046400008,-33.899036295999963],[150.87622846300007,-33.89913228599994],[150.87676847300008,-33.899290275999931],[150.87691546300005,-33.89933429599995],[150.87824548300011,-33.899717275999933],[150.87884448300008,-33.899892285999954],[150.88028974300005,-33.900305836999962],[150.88074314300002,-33.900431936999951],[150.88211419200002,-33.900837366999951],[150.88235746200007,-33.900909286999934],[150.88308848200006,-33.901128296999957],[150.88314948200002,-33.901170286999957],[150.88415848200009,-33.90178827699998],[150.88456148200009,-33.902004286999954],[150.88465747200007,-33.90205029699996],[150.88484370200001,-33.902169486999981],[150.88571265200005,-33.902725786999952],[150.88753765100012,-33.90388775699995],[150.88778567100007,-33.904045746999941],[150.88784903100009,-33.904084406999971],[150.88815666100004,-33.90377974699993],[150.88831364100008,-33.903653746999964],[150.8885226110001,-33.903541746999963],[150.88866065100001,-33.903486746999931],[150.88895962100003,-33.903205736999951],[150.88956760100007,-33.902871736999941],[150.88981058100012,-33.902789736999978],[150.88993260100006,-33.902676726999971],[150.89008959100011,-33.902593736999961],[150.89028158100007,-33.902453707999939],[150.89047758100003,-33.902126717999977],[150.89083758100003,-33.901459717999956],[150.89085554100006,-33.901389717999962],[150.89089054100009,-33.901359707999973],[150.89091555100003,-33.901235727999961],[150.89096351100011,-33.901203717999977],[150.89112254100007,-33.901005707999957],[150.89149152100003,-33.900638707999974],[150.8919165210001,-33.900086687999931],[150.89230149100001,-33.899749687999929],[150.89230251100003,-33.899720707999961],[150.89251147100003,-33.899580697999966],[150.89267850100009,-33.899425697999959],[150.89272248100008,-33.899368687999981],[150.89277449100007,-33.899341677999985],[150.89282745100002,-33.899270667999929],[150.89314245100002,-33.899031667999964],[150.89356450100001,-33.898594677999938],[150.89361746100008,-33.898552687999938],[150.89386544100012,-33.898183667999945],[150.89398943100002,-33.898042657999952],[150.89418806100002,-33.89776571799996],[150.89420244100006,-33.897745657999963],[150.89444645100002,-33.897576667999942],[150.89453343100001,-33.897535667999932],[150.8946384410001,-33.897451657999966],[150.89507742100011,-33.897042647999967],[150.89539139100009,-33.896804637999935],[150.89558441100007,-33.896621637999942],[150.89589243100011,-33.896886637999955],[150.89615738100008,-33.896641617999933],[150.8964153710001,-33.896596627999941],[150.8967733610001,-33.896535617999973],[150.89689279100003,-33.896512007999945],[150.89700101100004,-33.896156107999957],[150.89703886100006,-33.89603109799998],[150.89708456100004,-33.895790547999979],[150.8973903210001,-33.89570460799996],[150.89745934100006,-33.895691607999936],[150.89794136100011,-33.895641587999933],[150.89801034100003,-33.895628597999973],[150.8982362810001,-33.895623567999962],[150.89837461100012,-33.895508417999963],[150.89869917100009,-33.895548357999928],[150.89968051100004,-33.895446627999945],[150.89984874100003,-33.895432867999943],[150.90015355100002,-33.895298407999974],[150.90035328100009,-33.895208557999979],[150.90066827100009,-33.894969547999949],[150.90070430100002,-33.894884547999936],[150.90075730100011,-33.894827547999967],[150.90082927100002,-33.894671537999955],[150.90084960100012,-33.894504667999968],[150.90082548100008,-33.89409829799996],[150.9008792410001,-33.893998527999941],[150.90096827100001,-33.893885527999942],[150.90103922100002,-33.893757527999981],[150.90120424100007,-33.893330527999979],[150.90131823100012,-33.892873537999947],[150.90140170100005,-33.892641327999968],[150.90144620100011,-33.892517527999928],[150.90149920100009,-33.892461527999956],[150.9015522310001,-33.892390507999949],[150.90174520100004,-33.892207517999964],[150.90212824100001,-33.891998508999961],[150.90214619100004,-33.891955518999964],[150.90253218100008,-33.891589488999955],[150.90289718100007,-33.89136648899995],[150.9029671510001,-33.891338498999971],[150.90303720100007,-33.891282498999942],[150.90307245100007,-33.891226008999979],[150.9029224410001,-33.891121658999964],[150.90272052100011,-33.890953298999932]]]},"properties":{"FID":8,"Asset_ID":"AE0EFF729C4B773F571783B3DB5FCDC2","SubAsstID":"6801801F62DE4630DF860CFCCBC8EAC2","SubAsstNm":"Jossies","Region":"APAC","Country":"Australia"}},{"type":"Feature","id":9,"geometry":{"type":"Polygon","coordinates":[[[145.36078086400005,-37.847470874999942],[145.36042685400002,-37.847014864999949],[145.36064012400004,-37.846168994999971],[145.36090262400012,-37.845106854999983],[145.36011127400002,-37.844518794999942],[145.35997786400003,-37.844367864999981],[145.35964889500008,-37.843984864999982],[145.35900809500004,-37.842908704999957],[145.35879453500002,-37.842207844999962],[145.35847285500006,-37.841156864999959],[145.35876285500001,-37.841038864999973],[145.36037385500003,-37.84162487499998],[145.36011696500009,-37.842315754999959],[145.36044787500009,-37.842603854999936],[145.36151207400007,-37.842099954999981],[145.36245486400003,-37.842076864999967],[145.36281986400002,-37.84222686499993],[145.3632288440001,-37.842539184999964],[145.36353486400003,-37.84277287499998],[145.36390789400002,-37.842763864999938],[145.36443185400003,-37.842325854999956],[145.36469589400008,-37.842153864999943],[145.36479484400002,-37.842082864999952],[145.36532887400006,-37.84191885499996],[145.36695484300003,-37.842500865999966],[145.36716887300008,-37.842435855999952],[145.36724486300011,-37.842197855999984],[145.3681801030001,-37.841763425999943],[145.36812685300004,-37.841628875999959],[145.36786686400012,-37.838466865999976],[145.36828887400009,-37.837674865999929],[145.36871384400001,-37.83737386599995],[145.36944487400001,-37.83727186599998],[145.36799487400003,-37.835800865999943],[145.36718887400002,-37.83541087499998],[145.36741295400009,-37.83519109599996],[145.36754873400002,-37.835056545999976],[145.36922776400002,-37.834593985999959],[145.37000649400011,-37.833874335999951],[145.36787047400003,-37.832947115999957],[145.36500986500005,-37.82798186499997],[145.36487813500003,-37.827754334999952],[145.36383817600006,-37.825957094999978],[145.36210508600004,-37.822961264999947],[145.36154984600012,-37.823242864999941],[145.36071202700009,-37.822487544999944],[145.36003287700009,-37.82187386499993],[145.35860185700005,-37.820583864999946],[145.35838985700002,-37.820643854999958],[145.3576368680001,-37.819487864999985],[145.35763175800003,-37.819357834999948],[145.35754893800004,-37.819297534999976],[145.35745538800006,-37.819362564999949],[145.35680404800007,-37.819444704999967],[145.35414031800008,-37.819182223999974],[145.35362726800008,-37.819192733999955],[145.35271699800012,-37.81920370399996],[145.35204134900005,-37.819662613999981],[145.35149537900008,-37.820264643999963],[145.35179109800004,-37.820680223999943],[145.35008432900008,-37.820795533999956],[145.34945776900008,-37.820977573999983],[145.34900716900006,-37.820537533999982],[145.34871005900004,-37.820251753999969],[145.34861136900008,-37.82020268399998],[145.34851836900009,-37.820143713999983],[145.34786840900006,-37.818965723999952],[145.34615028000007,-37.819548013999963],[145.3456151900001,-37.819362803999979],[145.34516420000011,-37.819676323999943],[145.34333445000004,-37.820957843999963],[145.34476350000011,-37.82223877399997],[145.34372249000012,-37.822978483999975],[145.34309549000011,-37.822437373999946],[145.34310137000011,-37.822701853999945],[145.34340537000003,-37.82344481399997],[145.34354528000006,-37.823645613999929],[145.34353166000005,-37.82388651399998],[145.34332391000009,-37.823869013999968],[145.34294675000001,-37.824145663999957],[145.34279057000003,-37.824537813999939],[145.34259741000005,-37.825255463999952],[145.34274757000003,-37.825273793999941],[145.34234763900008,-37.826959793999947],[145.34216688900005,-37.826939423999931],[145.34198296900001,-37.827160703999937],[145.3418816090001,-37.827283803999933],[145.34146364900005,-37.827928803999953],[145.3408026300001,-37.828147823999984],[145.34081667900011,-37.829078803999948],[145.34106214900009,-37.829520783999953],[145.34036867900011,-37.829785783999966],[145.34025468900006,-37.829964783999969],[145.34009784900002,-37.829962863999981],[145.33965788000012,-37.83006185399995],[145.33959459000005,-37.830117353999981],[145.33921189000012,-37.830457863999982],[145.33878188000006,-37.830677862999949],[145.33823486000006,-37.830759862999969],[145.33802889000003,-37.830871892999937],[145.33863501000008,-37.831558002999941],[145.33820628000001,-37.831796262999944],[145.33820314000002,-37.831824252999979],[145.33855401000005,-37.831863072999965],[145.33854149000001,-37.831935512999962],[145.33858788900011,-37.834842862999949],[145.33532957000011,-37.834477822999929],[145.33426271000008,-37.834358142999974],[145.33361147000005,-37.835731442999929],[145.33385051000005,-37.836095222999973],[145.33388687000001,-37.838031392999937],[145.33415759000002,-37.838693692999982],[145.33400099900007,-37.841044862999979],[145.33409206900012,-37.841065842999967],[145.33283460900009,-37.847421722999968],[145.3321292490001,-37.85100853299997],[145.33238828800006,-37.851041542999951],[145.33519520800007,-37.851379512999983],[145.33615723800006,-37.85103552299995],[145.33626421800011,-37.851098522999962],[145.33848524700011,-37.852344953999932],[145.33955578700011,-37.851137833999985],[145.34176188700008,-37.851398923999966],[145.34262477700008,-37.851496843999939],[145.34379982600001,-37.851833873999965],[145.34432505600012,-37.851660813999956],[145.34478875600007,-37.851617793999935],[145.34537195600012,-37.851755863999983],[145.3458007160001,-37.85203278399996],[145.34610600600001,-37.852284873999963],[145.34729469600006,-37.853481873999954],[145.34832071500011,-37.853523813999971],[145.3489582950001,-37.852496643999984],[145.35266136500002,-37.846467494999956],[145.35291588500002,-37.846230854999931],[145.35346987500009,-37.846665864999977],[145.35391886500008,-37.846771874999945],[145.35414487500009,-37.846823874999984],[145.35481588500011,-37.846702864999941],[145.35507587500001,-37.846367864999934],[145.35532287500007,-37.846046874999956],[145.35545785500005,-37.84587386499993],[145.35567385500008,-37.845988854999973],[145.35588789500002,-37.846108864999962],[145.35674389500002,-37.84657186499993],[145.35696088500003,-37.84669185499996],[145.35725686500007,-37.846876854999948],[145.35768789500003,-37.847152854999933],[145.35796591400003,-37.847328904999983],[145.35779458400009,-37.84753395499996],[145.35880712400001,-37.847315064999975],[145.35888600400006,-37.84729604499995],[145.35879413400005,-37.847038414999929],[145.35966611400011,-37.847229204999962],[145.36078086400005,-37.847470874999942]]]},"properties":{"FID":9,"Asset_ID":"AE0EFF729C4B773F571783B3DB5FCDC2","SubAsstID":"8AF39FEBE5B2EBCB0BDA22CF02CECEF0","SubAsstNm":"Arawa Block South","Region":"APAC","Country":"Australia"}}]
}