{
"type": "FeatureCollection",
"name": "MAM_AU_DemoLine_segments",
"crs": { "type": "name", "properties": { "name": "urn:ogc:def:crs:OGC:1.3:CRS84" } },
"features": [
{ "type": "Feature", "properties": { "Asset_ID": "AE0EFF729C4B773F571783B3DB5FCDC2", "Asset_Name": "Viridis Ag", "SubAsstID": "F0168F5466BDCB3DDBC44A1C873241B2", "SubAsstNm": "Marian - Moranbah", "Region": "APAC", "Country": "Australia", "Segment_ID": "F0168F5466BDCB3DDBC44A1C873241B2_seg1" }, "geometry": { "type": "LineString", "coordinates": [ [ 148.940783181495419, -21.15084483486681 ], [ 148.940317583317352, -21.164114382941879 ], [ 148.933566409735306, -21.168071967455511 ], [ 148.920529660749253, -21.166093175198689 ], [ 148.895852957311376, -21.162717588407666 ], [ 148.876530632921344, -21.168770364722615 ], [ 148.86198068985658, -21.167257170643872 ], [ 148.861612495811869, -21.168850822614196 ] ] } },
{ "type": "Feature", "properties": { "Asset_ID": "AE0EFF729C4B773F571783B3DB5FCDC2", "Asset_Name": "Viridis Ag", "SubAsstID": "F0168F5466BDCB3DDBC44A1C873241B2", "SubAsstNm": "Marian - Moranbah", "Region": "APAC", "Country": "Australia", "Segment_ID": "F0168F5466BDCB3DDBC44A1C873241B2_seg2" }, "geometry": { "type": "LineString", "coordinates": [ [ 148.861612495811869, -21.168850822614196 ], [ 148.860126481487185, -21.175282373615541 ], [ 148.854158731402038, -21.175282373615541 ], [ 148.850748588496231, -21.187217873785876 ], [ 148.84563337413752, -21.190059659540715 ], [ 148.845065016986553, -21.201426802560071 ], [ 148.837960552599441, -21.210236338400072 ], [ 148.837392195448473, -21.220182588542016 ], [ 148.842791588382653, -21.227002874353637 ], [ 148.847054267014926, -21.230413017259444 ], [ 148.852169481373636, -21.235528231618151 ], [ 148.853803429042046, -21.240852317015829 ], [ 148.855213295760393, -21.24260918370722 ] ] } },
{ "type": "Feature", "properties": { "Asset_ID": "AE0EFF729C4B773F571783B3DB5FCDC2", "Asset_Name": "Viridis Ag", "SubAsstID": "F0168F5466BDCB3DDBC44A1C873241B2", "SubAsstNm": "Marian - Moranbah", "Region": "APAC", "Country": "Australia", "Segment_ID": "F0168F5466BDCB3DDBC44A1C873241B2_seg3" }, "geometry": { "type": "LineString", "coordinates": [ [ 148.855213295760393, -21.24260918370722 ], [ 148.857284695732346, -21.245190303184611 ], [ 148.880711667048843, -21.246788807671717 ], [ 148.902025060210121, -21.257001475228172 ], [ 148.933107091903707, -21.26144176547011 ], [ 148.943319759460167, -21.265882055712041 ], [ 148.94655194131866, -21.264631025155737 ] ] } },
{ "type": "Feature", "properties": { "Asset_ID": "AE0EFF729C4B773F571783B3DB5FCDC2", "Asset_Name": "Viridis Ag", "SubAsstID": "F0168F5466BDCB3DDBC44A1C873241B2", "SubAsstNm": "Marian - Moranbah", "Region": "APAC", "Country": "Australia", "Segment_ID": "F0168F5466BDCB3DDBC44A1C873241B2_seg4" }, "geometry": { "type": "LineString", "coordinates": [ [ 148.94655194131866, -21.264631025155737 ], [ 148.957084659210153, -21.260553707421721 ], [ 148.970405529935988, -21.269878316929788 ], [ 148.954864514089195, -21.288527535945924 ], [ 148.940211556290791, -21.291191710091088 ], [ 148.931330975806929, -21.302736464720134 ], [ 148.935335855580576, -21.315018823936622 ] ] } },
{ "type": "Feature", "properties": { "Asset_ID": "AE0EFF729C4B773F571783B3DB5FCDC2", "Asset_Name": "Viridis Ag", "SubAsstID": "F0168F5466BDCB3DDBC44A1C873241B2", "SubAsstNm": "Marian - Moranbah", "Region": "APAC", "Country": "Australia", "Segment_ID": "F0168F5466BDCB3DDBC44A1C873241B2_seg5" }, "geometry": { "type": "LineString", "coordinates": [ [ 148.935335855580576, -21.315018823936622 ], [ 148.937991411169833, -21.323161799833045 ], [ 148.937547382145624, -21.33603864153466 ], [ 148.941987672387569, -21.351579657381443 ], [ 148.940211556290791, -21.368008731276603 ], [ 148.948648107750472, -21.377777369808879 ], [ 148.934834535672309, -21.398498503213425 ] ] } },
{ "type": "Feature", "properties": { "Asset_ID": "AE0EFF729C4B773F571783B3DB5FCDC2", "Asset_Name": "Viridis Ag", "SubAsstID": "F0168F5466BDCB3DDBC44A1C873241B2", "SubAsstNm": "Marian - Moranbah", "Region": "APAC", "Country": "Australia", "Segment_ID": "F0168F5466BDCB3DDBC44A1C873241B2_seg6" }, "geometry": { "type": "LineString", "coordinates": [ [ 148.934834535672309, -21.398498503213425 ], [ 148.93177500483111, -21.403087024187922 ], [ 148.911349669718192, -21.411523575647607 ], [ 148.880711667048843, -21.434613084905681 ], [ 148.862062448032702, -21.45548244904279 ], [ 148.861550037048204, -21.455909487959779 ] ] } },
{ "type": "Feature", "properties": { "Asset_ID": "AE0EFF729C4B773F571783B3DB5FCDC2", "Asset_Name": "Viridis Ag", "SubAsstID": "F0168F5466BDCB3DDBC44A1C873241B2", "SubAsstNm": "Marian - Moranbah", "Region": "APAC", "Country": "Australia", "Segment_ID": "F0168F5466BDCB3DDBC44A1C873241B2_seg7" }, "geometry": { "type": "LineString", "coordinates": [ [ 148.861550037048204, -21.455909487959779 ], [ 148.854069925597202, -21.462142884405697 ], [ 148.821211777806866, -21.471911522937958 ], [ 148.80833493610524, -21.485232393663768 ], [ 148.793432211980758, -21.508349654735852 ], [ 148.789693245042372, -21.510989119314015 ] ] } },
{ "type": "Feature", "properties": { "Asset_ID": "AE0EFF729C4B773F571783B3DB5FCDC2", "Asset_Name": "Viridis Ag", "SubAsstID": "F0168F5466BDCB3DDBC44A1C873241B2", "SubAsstNm": "Marian - Moranbah", "Region": "APAC", "Country": "Australia", "Segment_ID": "F0168F5466BDCB3DDBC44A1C873241B2_seg8" }, "geometry": { "type": "LineString", "coordinates": [ [ 148.789693245042372, -21.510989119314015 ], [ 148.781637691025622, -21.516675198939488 ], [ 148.768455579369856, -21.534020082697047 ], [ 148.759436239815926, -21.545814603652204 ], [ 148.749723104911681, -21.57356641766432 ], [ 148.746919921560476, -21.589919222665941 ] ] } },
{ "type": "Feature", "properties": { "Asset_ID": "AE0EFF729C4B773F571783B3DB5FCDC2", "Asset_Name": "Viridis Ag", "SubAsstID": "F0168F5466BDCB3DDBC44A1C873241B2", "SubAsstNm": "Marian - Moranbah", "Region": "APAC", "Country": "Australia", "Segment_ID": "F0168F5466BDCB3DDBC44A1C873241B2_seg9" }, "geometry": { "type": "LineString", "coordinates": [ [ 148.746919921560476, -21.589919222665941 ], [ 148.745560332809873, -21.597849254924913 ], [ 148.721277495549288, -21.615887934032777 ], [ 148.700463635040194, -21.624213478236417 ], [ 148.694219476887469, -21.636007999191563 ], [ 148.693249736879466, -21.65561621528434 ] ] } },
{ "type": "Feature", "properties": { "Asset_ID": "AE0EFF729C4B773F571783B3DB5FCDC2", "Asset_Name": "Viridis Ag", "SubAsstID": "F0168F5466BDCB3DDBC44A1C873241B2", "SubAsstNm": "Marian - Moranbah", "Region": "APAC", "Country": "Australia", "Segment_ID": "F0168F5466BDCB3DDBC44A1C873241B2_seg10" }, "geometry": { "type": "LineString", "coordinates": [ [ 148.693249736879466, -21.65561621528434 ], [ 148.691184122229913, -21.697365525483963 ], [ 148.703108729813209, -21.708206077832447 ], [ 148.695587539220298, -21.741112463128413 ] ] } },
{ "type": "Feature", "properties": { "Asset_ID": "AE0EFF729C4B773F571783B3DB5FCDC2", "Asset_Name": "Viridis Ag", "SubAsstID": "F0168F5466BDCB3DDBC44A1C873241B2", "SubAsstNm": "Marian - Moranbah", "Region": "APAC", "Country": "Australia", "Segment_ID": "F0168F5466BDCB3DDBC44A1C873241B2_seg11" }, "geometry": { "type": "LineString", "coordinates": [ [ 148.695587539220298, -21.741112463128413 ], [ 148.694436287934423, -21.746148011052117 ], [ 148.680343569881416, -21.775417502393026 ], [ 148.686847901290491, -21.812275380377855 ], [ 148.671849554288116, -21.820789937521418 ] ] } },
{ "type": "Feature", "properties": { "Asset_ID": "AE0EFF729C4B773F571783B3DB5FCDC2", "Asset_Name": "Viridis Ag", "SubAsstID": "F0168F5466BDCB3DDBC44A1C873241B2", "SubAsstNm": "Marian - Moranbah", "Region": "APAC", "Country": "Australia", "Segment_ID": "F0168F5466BDCB3DDBC44A1C873241B2_seg12" }, "geometry": { "type": "LineString", "coordinates": [ [ 148.671849554288116, -21.820789937521418 ], [ 148.646737857601124, -21.835040540309674 ], [ 148.583862653979935, -21.85021731359754 ], [ 148.582179510653674, -21.852677668117305 ] ] } },
{ "type": "Feature", "properties": { "Asset_ID": "AE0EFF729C4B773F571783B3DB5FCDC2", "Asset_Name": "Viridis Ag", "SubAsstID": "F0168F5466BDCB3DDBC44A1C873241B2", "SubAsstNm": "Marian - Moranbah", "Region": "APAC", "Country": "Australia", "Segment_ID": "F0168F5466BDCB3DDBC44A1C873241B2_seg13" }, "geometry": { "type": "LineString", "coordinates": [ [ 148.582179510653674, -21.852677668117305 ], [ 148.5697699359269, -21.870814363059655 ], [ 148.495644065403695, -21.864638097910021 ] ] } },
{ "type": "Feature", "properties": { "Asset_ID": "AE0EFF729C4B773F571783B3DB5FCDC2", "Asset_Name": "Viridis Ag", "SubAsstID": "F0168F5466BDCB3DDBC44A1C873241B2", "SubAsstNm": "Marian - Moranbah", "Region": "APAC", "Country": "Australia", "Segment_ID": "F0168F5466BDCB3DDBC44A1C873241B2_seg14" }, "geometry": { "type": "LineString", "coordinates": [ [ 148.495644065403695, -21.864638097910021 ], [ 148.491717959017848, -21.864310031650565 ], [ 148.458112246737556, -21.868646252589951 ], [ 148.442935473449666, -21.872982473529351 ], [ 148.403865462048657, -21.891339340281363 ] ] } },
{ "type": "Feature", "properties": { "Asset_ID": "AE0EFF729C4B773F571783B3DB5FCDC2", "Asset_Name": "Viridis Ag", "SubAsstID": "F0168F5466BDCB3DDBC44A1C873241B2", "SubAsstNm": "Marian - Moranbah", "Region": "APAC", "Country": "Australia", "Segment_ID": "F0168F5466BDCB3DDBC44A1C873241B2_seg15" }, "geometry": { "type": "LineString", "coordinates": [ [ 148.403865462048657, -21.891339340281363 ], [ 148.37138782794969, -21.906588185809643 ], [ 148.328025618555785, -21.928269290506599 ], [ 148.317061996430994, -21.932715338606016 ] ] } },
{ "type": "Feature", "properties": { "Asset_ID": "AE0EFF729C4B773F571783B3DB5FCDC2", "Asset_Name": "Viridis Ag", "SubAsstID": "F0168F5466BDCB3DDBC44A1C873241B2", "SubAsstNm": "Marian - Moranbah", "Region": "APAC", "Country": "Australia", "Segment_ID": "F0168F5466BDCB3DDBC44A1C873241B2_seg16" }, "geometry": { "type": "LineString", "coordinates": [ [ 148.317061996430994, -21.932715338606016 ], [ 148.287915574866389, -21.94453011902932 ], [ 148.25105769688156, -21.954286616142955 ], [ 148.234134145768621, -21.974434994420868 ] ] } },
{ "type": "Feature", "properties": { "Asset_ID": "AE0EFF729C4B773F571783B3DB5FCDC2", "Asset_Name": "Viridis Ag", "SubAsstID": "F0168F5466BDCB3DDBC44A1C873241B2", "SubAsstNm": "Marian - Moranbah", "Region": "APAC", "Country": "Australia", "Segment_ID": "F0168F5466BDCB3DDBC44A1C873241B2_seg17" }, "geometry": { "type": "LineString", "coordinates": [ [ 148.234134145768621, -21.974434994420868 ], [ 148.228292536949766, -21.981387997014156 ], [ 148.212031708427077, -21.982472052248994 ], [ 148.153492725745252, -22.009573433120199 ], [ 148.147091557256857, -22.008983212178709 ] ] } },
{ "type": "Feature", "properties": { "Asset_ID": "AE0EFF729C4B773F571783B3DB5FCDC2", "Asset_Name": "Viridis Ag", "SubAsstID": "F0168F5466BDCB3DDBC44A1C873241B2", "SubAsstNm": "Marian - Moranbah", "Region": "APAC", "Country": "Australia", "Segment_ID": "F0168F5466BDCB3DDBC44A1C873241B2_seg18" }, "geometry": { "type": "LineString", "coordinates": [ [ 148.147091557256857, -22.008983212178709 ], [ 148.05, -22.0 ] ] } }
]
}
