{
  "type" : "FeatureCollection",
  "features" : [{"type":"Feature","id":1,"geometry":{"type":"LineString","coordinates":[[115.33800847500004,-29.604256274999955],[115.33746040300002,-29.604091765999954],[115.33630872000003,-29.603123977999928],[115.3343628560001,-29.603487748999953],[115.33077624400005,-29.603851998999971],[115.32706951200009,-29.604289826999945]]},"properties":{"OBJECTID":1,"Asset_ID":"AE0EFF729C4B773F571783B3DB5FCDC2","Asset_Name":"Viridis Ag","SubAsstID":"399472E9EF9D9F7CD200FBB26E584CC4","SubAsstNm":"Overhead Distribution Line","Region":"APAC","Country":"Australia","Segment_ID":"399472E9EF9D9F7CD200FBB26E584CC4_seg1","Shape_Length":0.011393687429057719,"Latitude":-29.603673323599637,"Longitude":115.33253558328607,"Length":1115.7492307575951}},{"type":"Feature","id":2,"geometry":{"type":"LineString","coordinates":[[115.32706951200009,-29.604289826999945],[115.32467915900008,-29.604572111999971],[115.3215474640001,-29.604925243999958],[115.31694848400002,-29.605903861999934],[115.31577554000012,-29.606182073999946]]},"properties":{"OBJECTID":2,"Asset_ID":"AE0EFF729C4B773F571783B3DB5FCDC2","Asset_Name":"Viridis Ag","SubAsstID":"399472E9EF9D9F7CD200FBB26E584CC4","SubAsstNm":"Overhead Distribution Line","Region":"APAC","Country":"Australia","Segment_ID":"399472E9EF9D9F7CD200FBB26E584CC4_seg2","Shape_Length":0.01146593985920394,"Latitude":-29.604964137204654,"Longitude":115.32136468678719,"Length":1115.7492883703694}},{"type":"Feature","id":3,"geometry":{"type":"LineString","coordinates":[[115.31577554000012,-29.606182073999946],[115.31496439300008,-29.606374463999941],[115.31314865500008,-29.606907054999965],[115.31009624600006,-29.607778494999934],[115.30719758000009,-29.608605744999977],[115.30469596000012,-29.608662764999963]]},"properties":{"OBJECTID":3,"Asset_ID":"AE0EFF729C4B773F571783B3DB5FCDC2","Asset_Name":"Viridis Ag","SubAsstID":"399472E9EF9D9F7CD200FBB26E584CC4","SubAsstNm":"Overhead Distribution Line","Region":"APAC","Country":"Australia","Segment_ID":"399472E9EF9D9F7CD200FBB26E584CC4_seg3","Shape_Length":0.011416923892046103,"Latitude":-29.607714834106371,"Longitude":115.31031923218899,"Length":1115.7492960053792}}]
}