{
"type": "FeatureCollection",
"name": "MAM_Agri_SubAssets_lines_segments",
"crs": { "type": "name", "properties": { "name": "urn:ogc:def:crs:OGC:1.3:CRS84" } },
"features": [
{ "type": "Feature", "properties": { "Asset_ID": "AE0EFF729C4B773F571783B3DB5FCDC2", "Asset_Name": "Viridis Ag", "SubAsstID": "399472E9EF9D9F7CD200FBB26E584CC4", "SubAsstNm": "Overhead Distribution Line", "Region": "APAC", "Country": "Australia", "Segment_ID": "seg_1" }, "geometry": { "type": "LineString", "coordinates": [ [ 115.338008474711387, -29.604256274607337, 0.0 ], [ 115.337460402675561, -29.604091766122046, 0.0 ], [ 115.336308720071429, -29.603123977789323, 0.0 ], [ 115.334362856061048, -29.603487749060314, 0.0 ], [ 115.330776243728664, -29.603851998770665, 0.0 ], [ 115.327069511670246, -29.604289827308243, 0.0 ] ] } },
{ "type": "Feature", "properties": { "Asset_ID": "AE0EFF729C4B773F571783B3DB5FCDC2", "Asset_Name": "Viridis Ag", "SubAsstID": "399472E9EF9D9F7CD200FBB26E584CC4", "SubAsstNm": "Overhead Distribution Line", "Region": "APAC", "Country": "Australia", "Segment_ID": "seg_2" }, "geometry": { "type": "LineString", "coordinates": [ [ 115.327069511670246, -29.604289827308243, 0.0 ], [ 115.324679158616405, -29.604572112013333, 0.0 ], [ 115.321547463844468, -29.604925244304518, 0.0 ], [ 115.316948483785623, -29.605903862273411, 0.0 ], [ 115.315775539887085, -29.606182074168427, 0.0 ] ] } },
{ "type": "Feature", "properties": { "Asset_ID": "AE0EFF729C4B773F571783B3DB5FCDC2", "Asset_Name": "Viridis Ag", "SubAsstID": "399472E9EF9D9F7CD200FBB26E584CC4", "SubAsstNm": "Overhead Distribution Line", "Region": "APAC", "Country": "Australia", "Segment_ID": "seg_3" }, "geometry": { "type": "LineString", "coordinates": [ [ 115.315775539887085, -29.606182074168427, 0.0 ], [ 115.314964393192213, -29.606374464010294, 0.0 ], [ 115.313148654786673, -29.606907055116437, 0.0 ], [ 115.310096246044964, -29.60777849458179, 0.0 ], [ 115.307197580004413, -29.608605744959107, 0.0 ], [ 115.304695960150525, -29.608662764674818, 0.0 ] ] } }
]
}
